"title","totalScore","reviewsCount","street","city","state","countryCode","website","phone","categoryName","url"
"Apna Bhaia Sweet","3.8","664","6616 Fraser St","Vancouver","British Columbia","CA","https://apnabhaia.com/?utm_source=google&utm_medium=maps&utm_campaign=website","+1 604-323-2805","Indian restaurant","https://www.google.com/maps/search/?api=1&query=Apna%20Bhaia%20Sweet&query_place_id=ChIJJ5U7GUB0hlQReNCs5dCPdR4"
"New Bhaia Sweet Shop and Restaurant","3.2","537","5740 Fraser St","Vancouver","British Columbia","CA","https://newbhaiasweet.com/","+1 604-323-2100","Restaurant","https://www.google.com/maps/search/?api=1&query=New%20Bhaia%20Sweet%20Shop%20and%20Restaurant&query_place_id=ChIJ4WZk-hh_C0ER8CTTCm4wn_U"
"Ms Tiffin’s Indian Restaurant","4.4","102","6084 Fraser St","Vancouver","British Columbia","CA","https://www.mstiffin.ca/","+1 604-677-4227","Indian restaurant","https://www.google.com/maps/search/?api=1&query=Ms%20Tiffin%E2%80%99s%20Indian%20Restaurant&query_place_id=ChIJu-hEihR0hlQRLeQz3FBKjPA"
"Jun Yuan Restaurant","3.8","437","5728 Victoria Dr","Vancouver","British Columbia","CA","https://junyuan.ca/","+1 604-323-1918","Hot pot restaurant","https://www.google.com/maps/search/?api=1&query=Jun%20Yuan%20Restaurant&query_place_id=ChIJSX152iF0hlQRDN8BKFy5XCs"
"New Novelty Sweet & Restaurant","3.6","215","6669 Fraser St","Vancouver","British Columbia","CA","https://newnoveltyrestaurant.com/","+1 604-326-1111","Indian restaurant","https://www.google.com/maps/search/?api=1&query=New%20Novelty%20Sweet%20%26%20Restaurant&query_place_id=ChIJIRVLI0B0hlQRsjthWj632Dg"
"JAPADOG (South Vancouver)","3.9","58","8130 Ontario St","Vancouver","British Columbia","CA","http://www.japadog.com/","+1 604-322-6465","Hot dog stand","https://www.google.com/maps/search/?api=1&query=JAPADOG%20(South%20Vancouver)&query_place_id=ChIJmZQ9YmV1hlQRRmSTe8GfiKM"
"McDonald's","3.6","1383","7295 Knight St","Vancouver","British Columbia","CA","https://www.mcdonalds.com/ca/en-ca/restaurant-locator.html?y_source=1_MTQ1MTk2OTMtNzE1LWxvY2F0aW9uLndlYnNpdGU%3D","+1 604-718-1197","Fast food restaurant","https://www.google.com/maps/search/?api=1&query=McDonald's&query_place_id=ChIJtWeGJDh0hlQRjLTIRAjNxDQ"
"McDonald's","3.4","1433","5661 Victoria Dr","Vancouver","British Columbia","CA","https://www.mcdonalds.com/ca/en-ca/restaurant-locator.html?y_source=1_MTQ1MTk1ODctNzE1LWxvY2F0aW9uLndlYnNpdGU%3D","+1 604-718-1160","Fast food restaurant","https://www.google.com/maps/search/?api=1&query=McDonald's&query_place_id=ChIJ81QafB90hlQRQLI8OmR2cFE"
"Mabuhay Supermarket and Restaurant (Food Delivery Through Website Available: 0.99)","3.7","71","3369 Kingsway #1","Vancouver","British Columbia","CA","https://www.mabuhayfoods.ca/","+1 604-453-0343","Produce market","https://www.google.com/maps/search/?api=1&query=Mabuhay%20Supermarket%20and%20Restaurant%20(Food%20Delivery%20Through%20Website%20Available%3A%200.99)&query_place_id=ChIJ4cEOuJF2hlQRxVVV63urwUg"
"Max's Restaurant Vancouver, Cuisine of the Philippines","4.1","1705","3546 Kingsway","Vancouver","British Columbia","CA","https://www.maxsrestaurantna.com/","+1 604-330-0151","Filipino restaurant","https://www.google.com/maps/search/?api=1&query=Max's%20Restaurant%20Vancouver%2C%20Cuisine%20of%20the%20Philippines&query_place_id=ChIJ9_jRPul3hlQRHu7uUdvkabc"
"Main Kabab Hut","3.8","392","215 E 49th Ave","Vancouver","British Columbia","CA",,"+1 604-322-8715","Restaurant","https://www.google.com/maps/search/?api=1&query=Main%20Kabab%20Hut&query_place_id=ChIJS7DPXWl0hlQRDlcIVY5lWoo"
"New Fishport Seafood Bistro","3.9","290","620 SE Marine Dr","Vancouver","British Columbia","CA","https://newfishport.com/","+1 604-323-1318","Chinese restaurant","https://www.google.com/maps/search/?api=1&query=New%20Fishport%20Seafood%20Bistro&query_place_id=ChIJn6xdOQF1hlQRCNrrNczEZ_Q"
"Himalaya Restaurant","3.5","800","6587 Main St","Vancouver","British Columbia","CA","https://order.online/business/himalaya-restaurant-59631","+1 604-324-6514","Indian restaurant","https://www.google.com/maps/search/?api=1&query=Himalaya%20Restaurant&query_place_id=ChIJpfU6bWl0hlQR6d6lwBQdXQA"
"SAMURAI SUSHI ON FRASER","3.9","772","6428 Fraser St","Vancouver","British Columbia","CA","http://samuraisushi.ca/","+1 604-676-4479","Sushi takeaway","https://www.google.com/maps/search/?api=1&query=SAMURAI%20SUSHI%20ON%20FRASER&query_place_id=ChIJdz3sNRV0hlQRmd_vjbfP8Ps"
"Dewan-E-Khass","3.9","1286","5750 Fraser St","Vancouver","British Columbia","CA","http://dewanekhass.ca/dishes/","+1 604-327-4800","Pakistani restaurant","https://www.google.com/maps/search/?api=1&query=Dewan-E-Khass&query_place_id=ChIJN4JgwxN0hlQRYZFSNrW3s-s"
"Gold Train Express Restaurant","3.5","1281","3320 Kingsway","Vancouver","British Columbia","CA","http://goldtrainexpressrestaurant.zomi.menu/","+1 604-433-7577","Pho restaurant","https://www.google.com/maps/search/?api=1&query=Gold%20Train%20Express%20Restaurant&query_place_id=ChIJqXdxrpF2hlQR1LZ_EtRe3IU"
"Mui Garden Restaurant","3.7","764","5797 Victoria Dr","Vancouver","British Columbia","CA","http://www.muigarden.com/","+1 604-324-3665","Chinese restaurant","https://www.google.com/maps/search/?api=1&query=Mui%20Garden%20Restaurant&query_place_id=ChIJg8j46SF0hlQRQNZ8JJ4sP4o"
"Best Quality Sweets & Restaurant","3.9","511","7260 Main St","Vancouver","British Columbia","CA","https://bestqualitysweets.com/?","+1 604-324-6677","Vegetarian restaurant","https://www.google.com/maps/search/?api=1&query=Best%20Quality%20Sweets%20%26%20Restaurant&query_place_id=ChIJEY4lLF10hlQRGWLYOd65D40"
"Handson Steak and Frites Restaurant",,"0","847 Denman St","Vancouver","British Columbia","CA",,,"Restaurant","https://www.google.com/maps/search/?api=1&query=Handson%20Steak%20and%20Frites%20Restaurant&query_place_id=ChIJGZFmVABzhlQRf9IjSnn1hZA"
"Bisou Bake House Bidwell","4.2","417","1190 Bidwell St","Vancouver","British Columbia","CA","http://www.bisoubakehouse.com/","+1 604-559-5657","Cafe","https://www.google.com/maps/search/?api=1&query=Bisou%20Bake%20House%20Bidwell&query_place_id=ChIJ5TZ41eBzhlQRFwUz7_YhsvI"
"Pigot's Burger Club","3.7","27","1795 Beach Ave","Vancouver","British Columbia","CA","https://pigotsburgerclub.com/","+1 778-222-3006","Hamburger restaurant","https://www.google.com/maps/search/?api=1&query=Pigot's%20Burger%20Club&query_place_id=ChIJHw8i_0pzhlQRl0BXt9l4qOU"
"Middle Eastern Restaurant",,"0","1114 Denman St","Vancouver","British Columbia","CA",,,"Restaurant","https://www.google.com/maps/search/?api=1&query=Middle%20Eastern%20Restaurant&query_place_id=ChIJARUHc1RzhlQRRfqwMRfBOrU"
"A&W Canada","4.1","561","991 Denman St","Vancouver","British Columbia","CA","https://web.aw.ca/","+1 604-681-0466","Hamburger restaurant","https://www.google.com/maps/search/?api=1&query=A%26W%20Canada&query_place_id=ChIJLWAyzidyhlQR2PjBgFfH4S4"
"Bento Sushi","2.5","2","1766 Robson St","Vancouver","British Columbia","CA","https://www.bentosushi.com/","+1 905-513-0028","Sushi takeaway","https://www.google.com/maps/search/?api=1&query=Bento%20Sushi&query_place_id=ChIJGRETSPBxhlQRiRd3Vqqgs88"
"Wo's Chinese Restaurant 金穗園美食","4.3","411","8166 Main St","Vancouver","British Columbia","CA","https://woschineserestaurant.com/","+1 604-323-8093","Chinese restaurant","https://www.google.com/maps/search/?api=1&query=Wo's%20Chinese%20Restaurant%20%E9%87%91%E7%A9%97%E5%9C%92%E7%BE%8E%E9%A3%9F&query_place_id=ChIJbXXGi1l0hlQRrXnLPCRJkM0"
"True Confections Denman","3.9","1284","866 Denman St","Vancouver","British Columbia","CA","http://trueconfections.ca/","+1 604-682-1292","Dessert restaurant","https://www.google.com/maps/search/?api=1&query=True%20Confections%20Denman&query_place_id=ChIJZayr6SdyhlQRYiwJnBLt6wc"
"Koon Bo Restaurant","3.8","632","5682 Fraser St","Vancouver","British Columbia","CA","http://www.koonborestaurant.ca/","+1 604-323-1218","Seafood restaurant","https://www.google.com/maps/search/?api=1&query=Koon%20Bo%20Restaurant&query_place_id=ChIJKyAx1RN0hlQRFfkmTXsUReg"
"Kim Phụng Restaurant","4.3","223","5764 Victoria Dr","Vancouver","British Columbia","CA",,"+1 604-327-4490","Vietnamese restaurant","https://www.google.com/maps/search/?api=1&query=Kim%20Ph%E1%BB%A5ng%20Restaurant&query_place_id=ChIJr8XowyF0hlQR0nJegQ4FgFM"
"Pin Pin Restaurant","4.1","840","6113 Fraser St","Vancouver","British Columbia","CA","http://www.pinpinrestaurant.com/","+1 604-322-3086","Filipino restaurant","https://www.google.com/maps/search/?api=1&query=Pin%20Pin%20Restaurant&query_place_id=ChIJS-9IjRR0hlQRPEb9bYcmx8w"
"Flamingo Chinese Restaurant","4","527","1652 SE Marine Dr","Vancouver","British Columbia","CA","http://www.flamingorestaurant.com/","+1 604-325-4511","Chinese restaurant","https://www.google.com/maps/search/?api=1&query=Flamingo%20Chinese%20Restaurant&query_place_id=ChIJ1SC-VD5_C0ERFR2rRlPM0G8"
"Chu Kiang Chinese Restaurant","4.1","159","6491 Knight St","Vancouver","British Columbia","CA","https://chukiangrestaurant.com/","+1 604-327-8835","Chinese restaurant","https://www.google.com/maps/search/?api=1&query=Chu%20Kiang%20Chinese%20Restaurant&query_place_id=ChIJGY2lSTx0hlQRrlXKXeBi9W4"
"Barcelos Flame Grilled Chicken - South Vancouver","4.4","173","713 SE Marine Dr","Vancouver","British Columbia","CA",,"+1 604-947-4444","Chicken restaurant","https://www.google.com/maps/search/?api=1&query=Barcelos%20Flame%20Grilled%20Chicken%20-%20South%20Vancouver&query_place_id=ChIJx_SHsCx1hlQRQ7RIoypZjzE"
"Cantonese BBQ Seafood Restaurant Authentic Cantonese Food (Best Price on Website!)","3.8","373","3320 Kingsway #320","Vancouver","British Columbia","CA","https://cantonesebbqseafood.zomi.menu/","+1 778-737-1700","Cantonese restaurant","https://www.google.com/maps/search/?api=1&query=Cantonese%20BBQ%20Seafood%20Restaurant%20Authentic%20Cantonese%20Food%20(Best%20Price%20on%20Website!)&query_place_id=ChIJ2dYrzfx3hlQRka1rpBGYfbI"
"Thai Son Restaurant","3.6","428","6471 Victoria Dr","Vancouver","British Columbia","CA","http://www.thaison.ca/","+1 604-325-6436","Vietnamese restaurant","https://www.google.com/maps/search/?api=1&query=Thai%20Son%20Restaurant&query_place_id=ChIJb3F-iyR0hlQRqg5dTEbOaIA"
"Michi Craft Kitchen","3.9","216","#180, 3665 Kingsway","Vancouver","British Columbia","CA","https://michi-craft-kitchen.myshopify.com/zh-cn/","+1 604-336-9968","Asian fusion restaurant","https://www.google.com/maps/search/?api=1&query=Michi%20Craft%20Kitchen&query_place_id=ChIJP1Bjs3N3hlQRGkNMRKjV518"
"Flower & Horse in Spring","4.1","461","1741 Robson St","Vancouver","British Columbia","CA","https://flowerhorseinspring.zomi.menu/","+1 778-379-6198","Chinese restaurant","https://www.google.com/maps/search/?api=1&query=Flower%20%26%20Horse%20in%20Spring&query_place_id=ChIJN8MuEohxhlQRnPb0SnLjn4U"
"Noodle Arts","4.3","368","1739 Robson St","Vancouver","British Columbia","CA","https://noodlearts.zomi.menu/","+1 604-673-5688","Chinese noodle restaurant","https://www.google.com/maps/search/?api=1&query=Noodle%20Arts&query_place_id=ChIJGf-ytvhxhlQRqVPrlyhwl-4"
"Dan Dan Noodle","4.1","383","836 Denman St","Vancouver","British Columbia","CA",,"+1 604-559-0266","Sichuan restaurant","https://www.google.com/maps/search/?api=1&query=Dan%20Dan%20Noodle&query_place_id=ChIJy0vgKUJxhlQRZUjRPtW4tJM"
"Sula Indian Restaurant, Davie Street","4.4","423","1708 Davie St","Vancouver","British Columbia","CA","https://sulaindianrestaurant.com/?utm_source=google&utm_medium=organic&utm_campaign=gmb_davie_hp","+1 778-653-5433","Indian restaurant","https://www.google.com/maps/search/?api=1&query=Sula%20Indian%20Restaurant%2C%20Davie%20Street&query_place_id=ChIJF5-n50hzhlQRLbkYBNtV6x0"
"93 Coffee","4.6","285","1789 Comox St","Vancouver","British Columbia","CA","http://93coffee.ca/","+1 778-379-5926","Cafe","https://www.google.com/maps/search/?api=1&query=93%20Coffee&query_place_id=ChIJfz7yjC1zhlQRPIeqYEgkBKs"
"Pho Express Ankor Noodle House","4.2","478","1745 Robson St","Vancouver","British Columbia","CA","https://phoexpressankornoodlehouse.zomi.menu/","+1 604-689-8399","Restaurant","https://www.google.com/maps/search/?api=1&query=Pho%20Express%20Ankor%20Noodle%20House&query_place_id=ChIJQWbhE4hxhlQR1121SZ4ZK_0"
"Tetsu Sushi Bar","4.6","452","775 Denman St","Vancouver","British Columbia","CA","https://www.tetsusushibar.com/","+1 604-428-5775","Sushi restaurant","https://www.google.com/maps/search/?api=1&query=Tetsu%20Sushi%20Bar&query_place_id=ChIJV3vgOIhxhlQRa7tQLte4kDk"
"The Basic","4.2","555","948 Denman St","Vancouver","British Columbia","CA","http://www.thebasiceats.com/","+1 604-642-6588","Breakfast restaurant","https://www.google.com/maps/search/?api=1&query=The%20Basic&query_place_id=ChIJNV3TwidyhlQRD6PwcfiNWEQ"
"Afghani Kabul Kebab Donair Ltd","4.4","724","1793 Robson St","Vancouver","British Columbia","CA","https://afghanikabulkebabdonairltd.zomi.menu/","+1 604-569-1124","Middle Eastern restaurant","https://www.google.com/maps/search/?api=1&query=Afghani%20Kabul%20Kebab%20Donair%20Ltd&query_place_id=ChIJF-zxPYhxhlQRz2nehz3oMaA"
"Big Bang Sushi","4.5","451","1103 Denman St","Vancouver","British Columbia","CA","https://bigbangsushi.ca/","+1 604-336-9622","Sushi restaurant","https://www.google.com/maps/search/?api=1&query=Big%20Bang%20Sushi&query_place_id=ChIJVT7TCzNzhlQRDkJurE2XeRg"
"Red Umbrella Cafe","4.4","1157","1707 Davie St","Vancouver","British Columbia","CA","https://redumbrellacafe.ca/","+1 604-688-7818","Breakfast restaurant","https://www.google.com/maps/search/?api=1&query=Red%20Umbrella%20Cafe&query_place_id=ChIJI6ImMy9yhlQRddvgxWmTi4A"
"MOMO SUSHI BIDWELL","4.4","721","833 Bidwell St","Vancouver","British Columbia","CA","https://momosushibidwell.com/","+1 604-569-2001","Sushi restaurant","https://www.google.com/maps/search/?api=1&query=MOMO%20SUSHI%20BIDWELL&query_place_id=ChIJx8Ts_YdxhlQRltXu3n3Fv6A"
"Sylvia Hotel, Restaurant and Lounge","4.3","2135","1154 Gilford St","Vancouver","British Columbia","CA","https://sylviahotel.com/","(877) 681-9321","Hotel","https://www.google.com/maps/search/?api=1&query=Sylvia%20Hotel%2C%20Restaurant%20and%20Lounge&query_place_id=ChIJTZVOoN1zhlQRSMNq0C_JoIo"
"Olympia Pizza & Pasta Restaurant(Denman st) Vancouver","4.1","1042","998 Denman St","Vancouver","British Columbia","CA","http://www.olympiapizza.com/","+1 604-688-8333","Greek restaurant","https://www.google.com/maps/search/?api=1&query=Olympia%20Pizza%20%26%20Pasta%20Restaurant(Denman%20st)%20Vancouver&query_place_id=ChIJJe0U0SdyhlQRH0BPwVr4JoA"
"Falafel King","4.2","333","1110 Denman St","Vancouver","British Columbia","CA",,"+1 604-669-7278","Lebanese restaurant","https://www.google.com/maps/search/?api=1&query=Falafel%20King&query_place_id=ChIJ2XUWoChyhlQR0JjHw1UUPwY"
"Nat's New York Pizzeria","4.3","590","1080 Denman St","Vancouver","British Columbia","CA","http://www.natspizza.com/","+1 604-642-0777","Pizza Takeout","https://www.google.com/maps/search/?api=1&query=Nat's%20New%20York%20Pizzeria&query_place_id=ChIJdZ34nShyhlQRR5UQwrergII"
"Chung Chun Rice Hot Dog","4.5","1283","1795 Robson St","Vancouver","British Columbia","CA","http://chungchunricedog.ca/","+1 604-423-5529","Fast food restaurant","https://www.google.com/maps/search/?api=1&query=Chung%20Chun%20Rice%20Hot%20Dog&query_place_id=ChIJhZE_EDdxhlQRUidBXle9i3E"
"Delany's Coffee House","4.4","685","1105 Denman St","Vancouver","British Columbia","CA","https://www.delanyscoffee.com/","+1 604-662-3344","Cafe","https://www.google.com/maps/search/?api=1&query=Delany's%20Coffee%20House&query_place_id=ChIJ0QyFoChyhlQR79TRHqqH6IA"
"Akira Sushi","4.2","458","1069 Denman St","Vancouver","British Columbia","CA","https://akira-sushi.ca/","+1 604-806-6321","Japanese restaurant","https://www.google.com/maps/search/?api=1&query=Akira%20Sushi&query_place_id=ChIJHVCFICZyhlQR4mED64JxecE"
"Ho Yuen Kee Restaurant","3.9","1220","6236 Fraser St","Vancouver","British Columbia","CA","https://hoyuenkeerestaurant.shop/","+1 604-324-8855","Chinese restaurant","https://www.google.com/maps/search/?api=1&query=Ho%20Yuen%20Kee%20Restaurant&query_place_id=ChIJfR7W5hR0hlQR7WrOIYfvh7o"
"Freshslice Pizza","4.6","569","1764 Davie St","Vancouver","British Columbia","CA","https://www.freshslice.com/pizza-in-vancouver/","+1 604-568-1760","Pizza restaurant","https://www.google.com/maps/search/?api=1&query=Freshslice%20Pizza&query_place_id=ChIJJ2VPlclzhlQR9mO0iPfKCQg"
"New Agarwal Restaurant","4.3","256","7233 Fraser St","Vancouver","British Columbia","CA","https://agarwalvancouver.com/","+1 604-566-3111","Indian restaurant","https://www.google.com/maps/search/?api=1&query=New%20Agarwal%20Restaurant&query_place_id=ChIJ-9MqVVh1hlQRVrtFfh57ZKQ"
"Chosun Korean BBQ","4","1926","3486 Kingsway","Vancouver","British Columbia","CA","https://chosunbbq.ca/","+1 604-434-1222","Korean barbecue restaurant","https://www.google.com/maps/search/?api=1&query=Chosun%20Korean%20BBQ&query_place_id=ChIJWVntFo52hlQRD09-SMxntUk"
"Madras Spice Restaurant, Vancouver","4.1","1242","6260 Fraser St","Vancouver","British Columbia","CA","http://www.madrasspice.ca/","+1 604-325-6555","Indian restaurant","https://www.google.com/maps/search/?api=1&query=Madras%20Spice%20Restaurant%2C%20Vancouver&query_place_id=ChIJtzrL3xR0hlQRjj2G3yaMEkk"
"Tandoori Oven","4.3","1065","6452 Main St","Vancouver","British Columbia","CA","https://tandooriovenrestaurant.com/","+1 604-565-3355","Indian restaurant","https://www.google.com/maps/search/?api=1&query=Tandoori%20Oven&query_place_id=ChIJqYa3WWl0hlQRus9KcGbnlM8"
"Original Tandoori Kitchen","4.2","541","7215 Main St","Vancouver","British Columbia","CA","https://originaltandoorikitchen.com/","+1 604-327-8900","Indian restaurant","https://www.google.com/maps/search/?api=1&query=Original%20Tandoori%20Kitchen&query_place_id=ChIJDf5DMl10hlQRSkJuZs97PG4"
"Sushi Taku-en Japanese restaurant","4.5","245","6967 Victoria Dr","Vancouver","British Columbia","CA","https://www.clover.com/online-ordering/sushi-taku-en","+1 604-559-6896","Japanese restaurant","https://www.google.com/maps/search/?api=1&query=Sushi%20Taku-en%20Japanese%20restaurant&query_place_id=ChIJ7R1Zmmh1hlQRaNhxs14WXtg"
"Sushi Mura River District","4.1","1112","3545 E Sawmill Cres","Vancouver","British Columbia","CA","https://sushi-mura.com/","+1 604-620-7894","Restaurant","https://www.google.com/maps/search/?api=1&query=Sushi%20Mura%20River%20District&query_place_id=ChIJG5yJepR1hlQRZ6THjHcg4hc"
"Dhaliwal Sweet & Restaurant","4.3","3432","6555 Fraser St","Vancouver","British Columbia","CA","https://dhaliwalsweet.easydine.co/","+1 604-325-4911","Indian restaurant","https://www.google.com/maps/search/?api=1&query=Dhaliwal%20Sweet%20%26%20Restaurant&query_place_id=ChIJn2xBpmp0hlQRfHeBKiPzWYk"
"Happy Day Cafe","3.7","1566","3312 Kingsway","Vancouver","British Columbia","CA","https://happydaycafe.ca/","+1 604-307-6868","Hong Kong style fast food restaurant","https://www.google.com/maps/search/?api=1&query=Happy%20Day%20Cafe&query_place_id=ChIJ2Ufdq5F2hlQRY0PIVLy0v7s"
"The Captain's Boil","3.9","1603","3309 Kingsway","Vancouver","British Columbia","CA","http://www.thecaptainsboil.com/","+1 604-565-3999","Seafood restaurant","https://www.google.com/maps/search/?api=1&query=The%20Captain's%20Boil&query_place_id=ChIJR3oZB5F2hlQRm-0AS6Q0r_U"
"Hi Five Chicken","4.2","1552","203 SE Marine Dr","Vancouver","British Columbia","CA","http://www.hifivechicken.com/","+1 604-327-4898","Chicken restaurant","https://www.google.com/maps/search/?api=1&query=Hi%20Five%20Chicken&query_place_id=ChIJA98BZpN1hlQRGfpzE7K3GiY"
"Good Choice Restaurant","4.1","357","6007 Fraser St","Vancouver","British Columbia","CA","http://www.good-choice.ca/","+1 604-325-9788","Cantonese restaurant","https://www.google.com/maps/search/?api=1&query=Good%20Choice%20Restaurant&query_place_id=ChIJM0jYfRR0hlQRGzzKM0EKBV4"
"Sushi & Co","4.3","642","6520 Fraser St","Vancouver","British Columbia","CA","https://sushicofraser.menu11.com/vancouver/order","+1 604-327-2221","Japanese restaurant","https://www.google.com/maps/search/?api=1&query=Sushi%20%26%20Co&query_place_id=ChIJK-MNr2p0hlQR_2ODdC13r6E"
"Jingle Bao","4.3","1042","774 Denman St","Vancouver","British Columbia","CA","http://jinglebao.com/","+1 604-428-7722","Dim sum restaurant","https://www.google.com/maps/search/?api=1&query=Jingle%20Bao&query_place_id=ChIJoVHE3YtxhlQR9VEBiZ6qXog"
"Ukrainian Village","4.4","1109","815 Denman St","Vancouver","British Columbia","CA","https://ukrainianvillage.wixsite.com/canada","+1 604-687-7440","Ukrainian restaurant","https://www.google.com/maps/search/?api=1&query=Ukrainian%20Village&query_place_id=ChIJ1y0YI4hxhlQRXIEmfZiXgEw"
"Modern Handi Indian Cuisine","4.6","1043","827 Denman St","Vancouver","British Columbia","CA","http://www.modernhandi.com/","+1 604-559-5244","Indian restaurant","https://www.google.com/maps/search/?api=1&query=Modern%20Handi%20Indian%20Cuisine&query_place_id=ChIJ54NpIIhxhlQRhb2k3PoxCTo"
"Zakkushi on Denman","4.4","1155","823 Denman St","Vancouver","British Columbia","CA","https://zakkushi.com/zakkushi/denman/","+1 604-685-1136","Izakaya restaurant","https://www.google.com/maps/search/?api=1&query=Zakkushi%20on%20Denman&query_place_id=ChIJ77z7IYhxhlQRYq44T6nqqB0"
"Papi's Seafood and Oyster Bar","4.2","622","1193 Denman St","Vancouver","British Columbia","CA","http://www.papisoysterbar.com/","+1 604-685-7337","Restaurant","https://www.google.com/maps/search/?api=1&query=Papi's%20Seafood%20and%20Oyster%20Bar&query_place_id=ChIJecbdLCRzhlQR5zNwpp7WPVs"
"Legendary Noodle House","4.3","695","1074 Denman St","Vancouver","British Columbia","CA","https://www.legendarynoodle.ca/","+1 604-669-8551","Chinese noodle restaurant","https://www.google.com/maps/search/?api=1&query=Legendary%20Noodle%20House&query_place_id=ChIJ7XLSAvpzhlQRWZY1PCngALY"
"KIN'S FOOD & BISTRO","4.3","130","792 Denman St","Vancouver","British Columbia","CA","https://www.instagram.com/kinsfoodandbistro/","+1 236-477-0277","Chinese restaurant","https://www.google.com/maps/search/?api=1&query=KIN'S%20FOOD%20%26%20BISTRO&query_place_id=ChIJBZioOQxxhlQRtwINmJUu4mw"
"The Park Pub","4.4","1134","1755 Davie St","Vancouver","British Columbia","CA","https://www.parkpub.ca/","+1 604-682-1831","Pub","https://www.google.com/maps/search/?api=1&query=The%20Park%20Pub&query_place_id=ChIJmZqwSi9yhlQRwouQZ3IxzFI"
"Damso Modern Korean Restaurant","4.3","913","867 Denman St","Vancouver","British Columbia","CA","https://damso-restaurant.ca/denman","+1 604-632-0022","Korean restaurant","https://www.google.com/maps/search/?api=1&query=Damso%20Modern%20Korean%20Restaurant&query_place_id=ChIJO_P18idyhlQR1DvHQxqvypY"
"Score on Davie","4.4","2927","1262 Davie St","Vancouver","British Columbia","CA","http://scoreondavie.com/","+1 604-632-1646","Pub","https://www.google.com/maps/search/?api=1&query=Score%20on%20Davie&query_place_id=ChIJuWIJjCtyhlQRbzI7maBcq8c"
"Biryani Lounge Restaurant and Bar","4.4","656","1184 Denman St","Vancouver","British Columbia","CA","http://biryanilounges.ca/","+1 604-609-9999","Indian restaurant","https://www.google.com/maps/search/?api=1&query=Biryani%20Lounge%20Restaurant%20and%20Bar&query_place_id=ChIJj5wgXY9zhlQRJ81hogjlCEQ"
"Ôngbà Vietnamese Eatery","4.4","773","976 Denman St","Vancouver","British Columbia","CA","http://ongba.ca/","+1 604-620-5595","Vietnamese restaurant","https://www.google.com/maps/search/?api=1&query=%C3%94ngb%C3%A0%20Vietnamese%20Eatery&query_place_id=ChIJMXAeXMlzhlQRZZpqQjvb_Wg"
"Kinara Indian Cuisine","4.5","844","1326 Davie St","Vancouver","British Columbia","CA","http://kinaraindiancuisine.ca/","+1 604-633-8313","Indian restaurant","https://www.google.com/maps/search/?api=1&query=Kinara%20Indian%20Cuisine&query_place_id=ChIJXeBlycZzhlQRQKCkhZQMz9c"
"Shamrock Storehouse","4.5","656","1184 Denman St #102","Vancouver","British Columbia","CA","http://www.shamrockstorehouse.com/","+1 604-428-4414","Irish pub","https://www.google.com/maps/search/?api=1&query=Shamrock%20Storehouse&query_place_id=ChIJny8xrShyhlQRqFxysSLSceo"
"Café Portrait","4.6","1018","1120 Denman St","Vancouver","British Columbia","CA","http://cafeportrait.com/","+1 604-915-6993","Brunch restaurant","https://www.google.com/maps/search/?api=1&query=Caf%C3%A9%20Portrait&query_place_id=ChIJkdJ5TNpzhlQRQ9oMzm4g-cY"
"Khaghan Restaurant","4.2","1844","851 Denman St","Vancouver","British Columbia","CA","https://khaghanrestaurant.ca/","+1 604-620-7688","Persian restaurant","https://www.google.com/maps/search/?api=1&query=Khaghan%20Restaurant&query_place_id=ChIJhd_AaSpzhlQRR0HKIE5tj_w"
"Pho Q&M Vietnamese Restaurant (Best Price on Website!)","4.4","219","825 Denman St","Vancouver","British Columbia","CA","https://phoqmvietnameserestaurant.zomi.menu/","+1 604-688-1199","Vietnamese restaurant","https://www.google.com/maps/search/?api=1&query=Pho%20Q%26M%20Vietnamese%20Restaurant%20(Best%20Price%20on%20Website!)&query_place_id=ChIJo9heRu9xhlQRrePSPBVD2G4"
"Dhamaka Indian Restaurant | Vancouver","4.8","3173","6560 Main St","Vancouver","British Columbia","CA","https://dhamakarestaurant.com/","+1 604-327-0891","Indian restaurant","https://www.google.com/maps/search/?api=1&query=Dhamaka%20Indian%20Restaurant%20%7C%20Vancouver&query_place_id=ChIJyem_KX51hlQRcNK2gnK0x34"
"Kintaro Ramen","4.3","1860","788 Denman St","Vancouver","British Columbia","CA","https://kintaroramen.shop/","+1 604-682-7568","Ramen restaurant","https://www.google.com/maps/search/?api=1&query=Kintaro%20Ramen&query_place_id=ChIJJYzxPohxhlQRFHN7EYdtbZE"
"Holy Guacamole","4.1","602","805 Denman St","Vancouver","British Columbia","CA","https://www.holyguacamolemexicangrill.com/","+1 604-423-9119","Mexican restaurant","https://www.google.com/maps/search/?api=1&query=Holy%20Guacamole&query_place_id=ChIJYVuP8NxxhlQRtDlsCAKCN7Y"
"Bombay Kitchen and Bar on Denman","4.6","728","1061 Denman St","Vancouver","British Columbia","CA","https://bombaykitchenondenman.ca/","+1 604-558-4445","Restaurant","https://www.google.com/maps/search/?api=1&query=Bombay%20Kitchen%20and%20Bar%20on%20Denman&query_place_id=ChIJSbmhiuRzhlQR04kvchr9X_I"
"Jungle Room","4.3","569","961 Denman St","Vancouver","British Columbia","CA","https://www.jungleroom.ca/","+1 604-558-4343","Restaurant","https://www.google.com/maps/search/?api=1&query=Jungle%20Room&query_place_id=ChIJqzGMgFpzhlQRRXMHDD5J58k"
"Robba da Matti (Westend)","4.4","812","1906 Haro St","Vancouver","British Columbia","CA","https://robbadamatti.com/","+1 604-423-3553","Italian restaurant","https://www.google.com/maps/search/?api=1&query=Robba%20da%20Matti%20(Westend)&query_place_id=ChIJ___7dydyhlQRH6syoy4hoIo"
"Tavola","4.5","920","1829 Robson St","Vancouver","British Columbia","CA","https://tavolavancouver.com/","+1 604-606-4680","Italian restaurant","https://www.google.com/maps/search/?api=1&query=Tavola&query_place_id=ChIJfZnyOohxhlQRAX10LargB0E"
"Kingyo Izakaya","4.6","3047","871 Denman St","Vancouver","British Columbia","CA","https://kingyo-izakaya.ca/","+1 604-608-1677","Izakaya restaurant","https://www.google.com/maps/search/?api=1&query=Kingyo%20Izakaya&query_place_id=ChIJd4CF7SdyhlQRoqTdwPGmzJo"
"Banana Leaf on Robson","4.2","1329","1779 Robson St","Vancouver","British Columbia","CA","https://www.bananaleaf-vancouver.com/robson","+1 604-569-3363","Malaysian restaurant","https://www.google.com/maps/search/?api=1&query=Banana%20Leaf%20on%20Robson&query_place_id=ChIJ1cv4PYhxhlQRE-YsD8Iaaac"
"Istanbul Doner Shop","4.5","799","990 Denman St","Vancouver","British Columbia","CA","https://istanbuldonershop.zomi.menu/","+1 604-568-4000","Turkish restaurant","https://www.google.com/maps/search/?api=1&query=Istanbul%20Doner%20Shop&query_place_id=ChIJc29beSVzhlQRuFzfhCA_a-M"
"Chicken World","4.7","2570","1181 Denman St","Vancouver","British Columbia","CA","http://www.chickenworldcanada.com/","+1 604-681-0007","Fast food restaurant","https://www.google.com/maps/search/?api=1&query=Chicken%20World&query_place_id=ChIJtXPMTvBzhlQRXRnWuohXyhY"
"Northern Cafe","4.9","5955","1640 East Kent Ave S","Vancouver","British Columbia","CA","http://northerncafeandgrill.com/","+1 778-532-6240","Restaurant","https://www.google.com/maps/search/?api=1&query=Northern%20Cafe&query_place_id=ChIJmVo1HEt0hlQRJ4QISlw3B9c"
"Hook Restaurant","4.2","1313","1210 Denman St","Vancouver","British Columbia","CA","http://www.hookrestaurant.ca/","+1 604-620-4668","Seafood restaurant","https://www.google.com/maps/search/?api=1&query=Hook%20Restaurant&query_place_id=ChIJqYIGTy9yhlQRuS6kHx4pVKM"
"Joojak Restaurant","4.6","706","3337 Kingsway","Vancouver","British Columbia","CA","https://m.facebook.com/pages/Joojak-Restaurant-%E6%9C%B1%E9%9B%80%E5%9D%8A/577836072337195","+1 604-563-8816","Chinese restaurant","https://www.google.com/maps/search/?api=1&query=Joojak%20Restaurant&query_place_id=ChIJEVyNr5F2hlQRgAL9ZC7p0Bw"
"Hyderabad Biryani House","4.7","11009","6231 Fraser St","Vancouver","British Columbia","CA","http://www.hyderabadbiryanihouse.ca/","+1 236-455-0125","Biryani restaurant","https://www.google.com/maps/search/?api=1&query=Hyderabad%20Biryani%20House&query_place_id=ChIJRy62VGt1hlQR8JGw7WuxZ5w"
"Sal y Limon Fraser","4.4","4852","6196 Fraser St","Vancouver","British Columbia","CA","https://www.salylimon.ca/","+1 604-677-4247","Mexican restaurant","https://www.google.com/maps/search/?api=1&query=Sal%20y%20Limon%20Fraser&query_place_id=ChIJ83_jy1dxhlQRhI1e7fLuLU8"
"Yu Xiang Yuan Restaurant","4.3","646","6591 Fraser St","Vancouver","British Columbia","CA","http://yuxiangyuantogo.com/","+1 604-620-1856","Chinese restaurant","https://www.google.com/maps/search/?api=1&query=Yu%20Xiang%20Yuan%20Restaurant&query_place_id=ChIJy6MKHkB0hlQR71__2gNoykA"
"Momo Hut","4.6","833","6372 Fraser St","Vancouver","British Columbia","CA","http://www.momohut.ca/","+1 604-428-8040","Restaurant","https://www.google.com/maps/search/?api=1&query=Momo%20Hut&query_place_id=ChIJv95Qo9J1hlQRBlqdCGJCduc"
"Mnimes Restaurant & Bar","4.7","415","6459 Victoria Dr","Vancouver","British Columbia","CA","https://mnimesrestaurantbar.ca/","+1 778-980-8880","Greek restaurant","https://www.google.com/maps/search/?api=1&query=Mnimes%20Restaurant%20%26%20Bar&query_place_id=ChIJdzGvNkN1hlQROkkAtZkL2sg"
"Nirvana - Indian restaurant","4.8","581","6482 Victoria Dr","Vancouver","British Columbia","CA","https://www.nirvanaonvictoria.com/","+1 604-872-8779","Indian restaurant","https://www.google.com/maps/search/?api=1&query=Nirvana%20-%20Indian%20restaurant&query_place_id=ChIJQczHCdx1hlQRS_0SccRGeUQ"
"Wasawa’s Indian Restaurant","4.8","96","689 E 65th Ave","Vancouver","British Columbia","CA","http://wasawas.ca/","+1 604-325-1301","Restaurant","https://www.google.com/maps/search/?api=1&query=Wasawa%E2%80%99s%20Indian%20Restaurant&query_place_id=ChIJ4x1W7aZ1hlQRuGlYa21KHRo"
"Vegan Fried Chickun","4.5","510","5932 Fraser St","Vancouver","British Columbia","CA","http://www.veganfriedchickun.com/","+1 604-324-3299","Vegan restaurant","https://www.google.com/maps/search/?api=1&query=Vegan%20Fried%20Chickun&query_place_id=ChIJgelWOTd1hlQRWxtvrnpy1P4"
"Wang's Shanghai Cuisine","4.4","1233","3328 Kingsway #110","Vancouver","British Columbia","CA","https://wangsshanghaicuisine.shop/","+1 604-428-6818","Shanghainese restaurant","https://www.google.com/maps/search/?api=1&query=Wang's%20Shanghai%20Cuisine&query_place_id=ChIJZW0xSpB2hlQR3SrZFklSZD4"
"Todak Todak Korean Chicken Restaurant","4.3","504","3510 Kingsway","Vancouver","British Columbia","CA","http://todaktodak.ca/","+1 604-336-9866","Restaurant","https://www.google.com/maps/search/?api=1&query=Todak%20Todak%20Korean%20Chicken%20Restaurant&query_place_id=ChIJL35o_a13hlQRkJcsMIW7kV8"
"Prinkle Fried Chicken (Victoria Dr )","4.8","342","6441 Victoria Dr","Vancouver","British Columbia","CA","http://www.prinklechicken.com/","+1 604-566-9899","Fried chicken takeaway","https://www.google.com/maps/search/?api=1&query=Prinkle%20Fried%20Chicken%20(Victoria%20Dr%20)&query_place_id=ChIJvVUtTGB1hlQRX_ZU--_feUk"
"So Hyang Korean Cuisine","4.4","1484","6345 Fraser St","Vancouver","British Columbia","CA","https://so-hyang.ca/","+1 604-729-0702","Korean restaurant","https://www.google.com/maps/search/?api=1&query=So%20Hyang%20Korean%20Cuisine&query_place_id=ChIJjapwJRV0hlQROAAoOLJVmGY"
"Karakoram Restaurant","4.3","3909","6990 Victoria Dr","Vancouver","British Columbia","CA","https://www.karakoramrestaurant.com/","+1 604-737-1000","Pakistani restaurant","https://www.google.com/maps/search/?api=1&query=Karakoram%20Restaurant&query_place_id=ChIJB3MMFXV1hlQRFAa0ix8KpvA"
"Sumi Korean Restaurant","4.5","667","5628 Victoria Dr","Vancouver","British Columbia","CA","https://www.sumikoreanrestaurant.ca/","+1 604-620-9235","Korean restaurant","https://www.google.com/maps/search/?api=1&query=Sumi%20Korean%20Restaurant&query_place_id=ChIJcaBgLwh1hlQRp2UdMmvM6SI"
"PRINKLE FRIED CHICKEN (Vancouver)","4.7","470","6530 Fraser St","Vancouver","British Columbia","CA","http://www.prinklechicken.com/","+1 604-566-1552","Fried chicken takeaway","https://www.google.com/maps/search/?api=1&query=PRINKLE%20FRIED%20CHICKEN%20(Vancouver)&query_place_id=ChIJr0WEsip1hlQRFvadpTIM5UU"
"Shawarma Cafe","4.3","767","1412 E 49th Ave","Vancouver","British Columbia","CA","https://www.shawarma-cafe.ca/","+1 604-323-0007","Middle Eastern restaurant","https://www.google.com/maps/search/?api=1&query=Shawarma%20Cafe&query_place_id=ChIJqbCP86V1hlQRtHgWV8L2QJg"
"PHO IN LOVE AUTHENTIC VIETNAMESE RESTAURANT & BAR","4.9","242","1725 Davie St","Vancouver","British Columbia","CA","http://phoinlove.ca/","+1 604-609-7010","Restaurant","https://www.google.com/maps/search/?api=1&query=PHO%20IN%20LOVE%20AUTHENTIC%20VIETNAMESE%20RESTAURANT%20%26%20BAR&query_place_id=ChIJU0FPvhVzhlQR7sHMW2R5vts"
"Teahouse in Stanley Park","4.4","2389","7501 Stanley Park Dr","Vancouver","British Columbia","CA","http://vancouverdine.com/teahouse","+1 604-669-3281","Restaurant","https://www.google.com/maps/search/?api=1&query=Teahouse%20in%20Stanley%20Park&query_place_id=ChIJ7-_t7CFyhlQRi7LZGVmtdSs"
"Noah's Cafe","4.7","654","1096 Denman St","Vancouver","British Columbia","CA","https://www.noahscafe604.com/","+1 604-559-1096","Tapas bar","https://www.google.com/maps/search/?api=1&query=Noah's%20Cafe&query_place_id=ChIJOU68-ztzhlQRg30p3Cl_XoI"
"Diba Restaurant","4.9","665","1795 Pendrell St","Vancouver","British Columbia","CA","http://diba.restaurant/","+1 604-365-7973","Restaurant","https://www.google.com/maps/search/?api=1&query=Diba%20Restaurant&query_place_id=ChIJecsKPJRzhlQRIPUiXBfetRc"
"Mediterranean Grill Restaurant at Denman LTD..","4.3","2105","1152 Denman St","Vancouver","British Columbia","CA","https://www.mediterraneangrill.ca/","+1 604-689-1112","Restaurant","https://www.google.com/maps/search/?api=1&query=Mediterranean%20Grill%20Restaurant%20at%20Denman%20LTD..&query_place_id=ChIJYwRQryhyhlQRcFek5w_qOr4"
"Taqueria Jalisco Mexican Restaurant","4.9","2723","1180 Denman St #201","Vancouver","British Columbia","CA",,"+1 604-428-5577","Mexican restaurant","https://www.google.com/maps/search/?api=1&query=Taqueria%20Jalisco%20Mexican%20Restaurant&query_place_id=ChIJLyiydABzhlQRa-PA89MDwI8"
"Stanley Park Brewing Restaurant & Brewpub","4.3","2929","8901 Stanley Park Dr","Vancouver","British Columbia","CA","https://www.stanleyparkbrewing.com/brewpub/","+1 604-681-0460","Brewpub","https://www.google.com/maps/search/?api=1&query=Stanley%20Park%20Brewing%20Restaurant%20%26%20Brewpub&query_place_id=ChIJ28t23QxzhlQRlPVAoZUunSU"
"Chef Ron Restaurant & Bar","4.5","1218","1037 Denman St","Vancouver","British Columbia","CA","https://anorder.ca/chefron","+1 604-336-9994","Restaurant","https://www.google.com/maps/search/?api=1&query=Chef%20Ron%20Restaurant%20%26%20Bar&query_place_id=ChIJufCsY7hzhlQRJ5pRvUZ6tMQ"
"Cactus Club Cafe","4.4","4305","1790 Beach Ave","Vancouver","British Columbia","CA","https://www.cactusclubcafe.com/locations/english-bay/","+1 604-681-2582","Restaurant","https://www.google.com/maps/search/?api=1&query=Cactus%20Club%20Cafe&query_place_id=ChIJX0kLQy9yhlQR_mic2Fqppc0"
"mumu kitchen","4.3","550","1738 Davie St","Vancouver","British Columbia","CA","https://order.tryotter.com/s/mumu-kitchen/1738-davie-street-vancouver/47b433e4-1530-4c5b-b26e-9639a1ff703e","+1 604-423-2722","Korean restaurant","https://www.google.com/maps/search/?api=1&query=mumu%20kitchen&query_place_id=ChIJG1OD4h1zhlQR4gMrrKk63s4"
"Nook","4.5","687","781 Denman St","Vancouver","British Columbia","CA","http://nookrestaurants.com/","+1 604-568-4554","Italian restaurant","https://www.google.com/maps/search/?api=1&query=Nook&query_place_id=ChIJWX04OYhxhlQRrj8ua53qkZc"
"España Restaurant","4.4","854","1118 Denman St","Vancouver","British Columbia","CA","http://www.espanarestaurant.ca/","+1 604-558-4040","Spanish restaurant","https://www.google.com/maps/search/?api=1&query=Espa%C3%B1a%20Restaurant&query_place_id=ChIJcfQaoShyhlQRMi0PP9FMUsw"
"Babylon Restaurant & Bar","4.3","467","1162 Denman St","Vancouver","British Columbia","CA","https://www.babylon-restaurant.ca/","+1 778-689-4680","Mediterranean restaurant","https://www.google.com/maps/search/?api=1&query=Babylon%20Restaurant%20%26%20Bar&query_place_id=ChIJm256IG5zhlQRBbAxfDdcFdM"
"Chuan Yue","3.9","300","8329 Oak St","Vancouver","British Columbia","CA","https://chuanyuetogo.com/","+1 604-336-6238","Chinese restaurant","https://www.google.com/maps/search/?api=1&query=Chuan%20Yue&query_place_id=ChIJx_ejbmbZhVQRuXTDuLRZJUE"
"Tojo's Restaurant","4.2","787","1133 W Broadway","Vancouver","British Columbia","CA","http://www.tojos.com/","+1 604-872-8050","Japanese restaurant","https://www.google.com/maps/search/?api=1&query=Tojo's%20Restaurant&query_place_id=ChIJMYJSAcRzhlQRypjt6a7nKlQ"
"Camion Cafe - Food Truck","4.4","37","8425 Main St","Vancouver","British Columbia","CA",,"+1 236-412-1119","Mobile caterer","https://www.google.com/maps/search/?api=1&query=Camion%20Cafe%20-%20Food%20Truck&query_place_id=ChIJR36Mw65xhlQRCxlYc8qgsps"
"Miyako Sushi","2.8","452","2341 E Hastings St","Vancouver","British Columbia","CA","https://miyakosushi.zomi.menu/","+1 604-255-9411","Sushi restaurant","https://www.google.com/maps/search/?api=1&query=Miyako%20Sushi&query_place_id=ChIJQSmlgxhxhlQRB4Jp0RW8gFY"
"A&W Canada","4.1","809","6491 Oak St","Vancouver","British Columbia","CA","https://web.aw.ca/","+1 604-266-0502","Hamburger restaurant","https://www.google.com/maps/search/?api=1&query=A%26W%20Canada&query_place_id=ChIJuTRXDZ9zhlQRuGKaUegoK7g"
"Holi Masala Food Truck Office","4","22","8273 Ross St","Vancouver","British Columbia","CA","http://www.holimasala.com/","+1 604-325-5014","Indian takeaway","https://www.google.com/maps/search/?api=1&query=Holi%20Masala%20Food%20Truck%20Office&query_place_id=ChIJedVZH39xhlQRqq_Lf2Vt2BM"
"A&W Canada","3.8","734","468 SW Marine Dr","Vancouver","British Columbia","CA","https://web.aw.ca/","+1 604-327-0468","Hamburger restaurant","https://www.google.com/maps/search/?api=1&query=A%26W%20Canada&query_place_id=ChIJUaeYv_Z0hlQRj_EpoX3KYy8"
"McDonald's","3.7","1593","830 SW Marine Dr","Vancouver","British Columbia","CA","https://www.mcdonalds.com/ca/en-ca/restaurant-locator.html?y_source=1_MTQ1MjAzNzEtNzE1LWxvY2F0aW9uLndlYnNpdGU%3D","+1 604-718-1177","Fast food restaurant","https://www.google.com/maps/search/?api=1&query=McDonald's&query_place_id=ChIJk00dH-50hlQRuFg6Si9b_YM"
"Weiss Wares Tabletop | Restaurant Dinnerware | Flatware | Buffetware | Glassware - Vancouver","5","21","1868 Glen Dr unit 248","Vancouver","British Columbia","CA","https://www.weisswares.ca/","+1 604-377-5818","Restaurant supply store","https://www.google.com/maps/search/?api=1&query=Weiss%20Wares%20Tabletop%20%7C%20Restaurant%20Dinnerware%20%7C%20Flatware%20%7C%20Buffetware%20%7C%20Glassware%20-%20Vancouver&query_place_id=ChIJ1w6sTFTThVQRxl5xdWXsa3I"
"Pho Hoa + Jazen Tea (Oak)","3.2","378","1011 W 49th Ave","Vancouver","British Columbia","CA","http://www.phohoa.com/","+1 604-263-3555","Pho restaurant","https://www.google.com/maps/search/?api=1&query=Pho%20Hoa%20%2B%20Jazen%20Tea%20(Oak)&query_place_id=ChIJWzznCX10hlQRng2V3Gi1hIM"
"FRESH SUSHI","4.4","661","909 Expo Blvd","Vancouver","British Columbia","CA","http://www.freshsushi.ca/","+1 604-568-6112","Japanese restaurant","https://www.google.com/maps/search/?api=1&query=FRESH%20SUSHI&query_place_id=ChIJz9sGZX1xhlQR7uAwQS9T6ts"
"海洋城 Seaport City Restaurant","3.5","271","2425 Cambie St.","Vancouver","British Columbia","CA","http://www.seaportcityrestaurant.com/","+1 604-222-7288","Chinese restaurant","https://www.google.com/maps/search/?api=1&query=%E6%B5%B7%E6%B4%8B%E5%9F%8E%20Seaport%20City%20Restaurant&query_place_id=ChIJxWDQsoZzhlQRTT7P-m1sqsI"
"Sun Garden Chinese Restaurant","3.6","166","3832 Oak St","Vancouver","British Columbia","CA","http://sungardenchinese.com/","+1 604-733-3922","Chinese restaurant","https://www.google.com/maps/search/?api=1&query=Sun%20Garden%20Chinese%20Restaurant&query_place_id=ChIJhzuAa5NzhlQRIG-P1XOisAo"
"Mazuya Sushi Restaurant","4.3","173","2355 Burrard St","Vancouver","British Columbia","CA","http://mazuya-sushi.ca/","+1 604-566-5092","Sushi restaurant","https://www.google.com/maps/search/?api=1&query=Mazuya%20Sushi%20Restaurant&query_place_id=ChIJIdR4l7dzhlQRO0KEaW_7Vt4"
"Ginger Sushi","4.4","662","1437 Commercial Dr","Vancouver","British Columbia","CA","https://ginger-sushi.ca/","+1 604-255-5220","Sushi restaurant","https://www.google.com/maps/search/?api=1&query=Ginger%20Sushi&query_place_id=ChIJEbWiUT9xhlQR6TysLyO_-Gc"
"Shanghai Lu Restaurant","3.7","445","705 W Broadway","Vancouver","British Columbia","CA","https://dongbao.ca/","+1 604-873-9147","Cantonese restaurant","https://www.google.com/maps/search/?api=1&query=Shanghai%20Lu%20Restaurant&query_place_id=ChIJq4LTKt1zhlQRpy4Ahtva-g4"
"El Guapo - Mexican Restaurant Vancouver","3.9","599","1009 Hamilton St","Vancouver","British Columbia","CA","https://elguapo.ca/","+1 604-423-4224","Restaurant","https://www.google.com/maps/search/?api=1&query=El%20Guapo%20-%20Mexican%20Restaurant%20Vancouver&query_place_id=ChIJH2bzVGtzhlQRs1Ok98zdwLQ"
"Kisokoma Japanese Restaurant","4","296","805 W Broadway #112","Vancouver","British Columbia","CA","http://kisokoma.com/","+1 604-875-1117","Japanese restaurant","https://www.google.com/maps/search/?api=1&query=Kisokoma%20Japanese%20Restaurant&query_place_id=ChIJMZfgI8NzhlQRG4KcZgIsxCU"
"Mali Thai Restaurant","3.5","318","2710 Main St","Vancouver","British Columbia","CA","http://www.malithairestaurant.com/","+1 604-879-3929","Thai restaurant","https://www.google.com/maps/search/?api=1&query=Mali%20Thai%20Restaurant&query_place_id=ChIJY8q2LuJzhlQRoADKGGvapQY"
"Church's Chicken","3.9","2607","5704 Fraser Street, E 41st Ave","Vancouver","BC","CA","https://lowermainland.churchstexaschicken.com/","+1 604-321-2222","Chicken restaurant","https://www.google.com/maps/search/?api=1&query=Church's%20Chicken&query_place_id=ChIJydf90BN0hlQR5OFVu-6ooK0"
"Grace of India Restaurant","4.1","463","1284 Kingsway","Vancouver","British Columbia","CA","https://www.graceofindiayvr.com/","+1 604-428-8742","Indian restaurant","https://www.google.com/maps/search/?api=1&query=Grace%20of%20India%20Restaurant&query_place_id=ChIJQ0usK6t2hlQR35W8wv3g5C0"
"Sushi Maro Japanese Restaurant","4","896","1168 Mainland St #101","Vancouver","British Columbia","CA","https://sushimaro.com/","+1 778-371-8332","Sushi restaurant","https://www.google.com/maps/search/?api=1&query=Sushi%20Maro%20Japanese%20Restaurant&query_place_id=ChIJN4qi39ZzhlQRlzqSDb047TY"
"Nikkyu Japanese Restaurant","4","491","3302 Main St","Vancouver","British Columbia","CA","https://nikkyujapanese.com/?utm_source=google&utm_medium=maps&utm_campaign=website","+1 604-873-2220","Sushi restaurant","https://www.google.com/maps/search/?api=1&query=Nikkyu%20Japanese%20Restaurant&query_place_id=ChIJJ0GsTPtzhlQRGcm9uJcNlF0"
"New Sun Restaurant","3.9","80","2925 Cambie St.","Vancouver","British Columbia","CA","https://www.newsunrestaurant.ca/","+1 604-876-1277","Chinese restaurant","https://www.google.com/maps/search/?api=1&query=New%20Sun%20Restaurant&query_place_id=ChIJmXnWhuhzhlQRF9dpd6S1dT4"
"Kalvin's Restaurant","4.3","672","5225 Victoria Dr","Vancouver","British Columbia","CA","https://kalvinrestaurant.ca/","+1 604-321-2888","Taiwanese restaurant","https://www.google.com/maps/search/?api=1&query=Kalvin's%20Restaurant&query_place_id=ChIJ2y8xHh50hlQRWhRBYqcleik"
"Farmer's Apprentice Restaurant","4.3","428","1535 W 6th Ave","Vancouver","British Columbia","CA","http://www.farmersapprentice.ca/","+1 604-620-2070","Pacific Northwest restaurant (Canada)","https://www.google.com/maps/search/?api=1&query=Farmer's%20Apprentice%20Restaurant&query_place_id=ChIJiVOKeshzhlQRH8k4h0rMVc4"
"Po Kong","4.4","1137","1334 Kingsway","Vancouver","British Columbia","CA","http://www.pokongvegetarian.ca/","+1 604-876-3088","Vegetarian restaurant","https://www.google.com/maps/search/?api=1&query=Po%20Kong&query_place_id=ChIJbSuII6t2hlQR5dXyYzlSTa8"
"Aling Ening Restaurant","4.4","105","4253 Fraser St","Vancouver","British Columbia","CA","https://www.facebook.com/Aling-Ening-152444318116515/","+1 604-873-1956","Filipino restaurant","https://www.google.com/maps/search/?api=1&query=Aling%20Ening%20Restaurant&query_place_id=ChIJw0CjWwd0hlQRC0ZtMN1lywI"
"Royal Seoul House Restaurant","3.8","721","1215 W Broadway","Vancouver","British Columbia","CA","http://www.royalseoulhouse.com/","+1 604-739-9001","Korean restaurant","https://www.google.com/maps/search/?api=1&query=Royal%20Seoul%20House%20Restaurant&query_place_id=ChIJIdP7usZzhlQR_sznvH1QV7o"
"Suika Japanese Restaurant","4.5","2260","1626 W Broadway","Vancouver","British Columbia","CA","https://www.suika-snackbar.com/","+1 604-730-1678","Izakaya restaurant","https://www.google.com/maps/search/?api=1&query=Suika%20Japanese%20Restaurant&query_place_id=ChIJ_4mfbbhzhlQRMEEC_lcgKOE"
"McDonald's","3.5","866","1482 W Broadway","Vancouver","British Columbia","CA","https://www.mcdonalds.com/ca/en-ca/restaurant-locator.html?y_source=1_MTQ1MjA1OTMtNzE1LWxvY2F0aW9uLndlYnNpdGU%3D","+1 604-718-1191","Fast food restaurant","https://www.google.com/maps/search/?api=1&query=McDonald's&query_place_id=ChIJbW0YnsdzhlQR2mtc9pcWMWw"
"Dakshin Restaurant",,"0","1605 W 5th Ave","Vancouver","British Columbia","CA",,,"Restaurant","https://www.google.com/maps/search/?api=1&query=Dakshin%20Restaurant&query_place_id=ChIJAQBcWshzhlQR8I6qzo1fhPw"
"Bakery by Jany | Gluten Free Coffee Shop - Kitsilano","4.2","210","1939 Cornwall Ave","Vancouver","British Columbia","CA","http://www.glutenfreebyjany.com/","+1 604-736-0885","Bakery","https://www.google.com/maps/search/?api=1&query=Bakery%20by%20Jany%20%7C%20Gluten%20Free%20Coffee%20Shop%20-%20Kitsilano&query_place_id=ChIJ0Tbh6MpzhlQRrooBuZBYlGw"
"Haiyi Seafood Restaurant","3.9","598","4818 Main St","Vancouver","British Columbia","CA","https://haiyiseafoodrestaurant.zomi.menu/","+1 604-321-4448","Seafood restaurant","https://www.google.com/maps/search/?api=1&query=Haiyi%20Seafood%20Restaurant&query_place_id=ChIJ1YnJiAl0hlQRs1kIV8dTc-Q"
"Chau Veggie Express","4.4","199","1689 Johnston St","Vancouver","British Columbia","CA","http://chowatchau.ca/","+1 778-379-9508","Cafe","https://www.google.com/maps/search/?api=1&query=Chau%20Veggie%20Express&query_place_id=ChIJn266dc5zhlQRuo9mi1ya7d4"
"Pho Viet Lotus Restaurant",,"0","2680 W Broadway","Vancouver","British Columbia","CA",,,"Vietnamese restaurant","https://www.google.com/maps/search/?api=1&query=Pho%20Viet%20Lotus%20Restaurant&query_place_id=ChIJj5oLIGZzhlQRNImeNMA4N7Q"
"Donair Dude","4.1","557","3209 W Broadway","Vancouver","British Columbia","CA","https://www.donairdude.com/","+1 604-564-1294","Doner kebab restaurant","https://www.google.com/maps/search/?api=1&query=Donair%20Dude&query_place_id=ChIJjWFvJ6tzhlQRb28fkiHy7-U"
"Chickpea Food Truck","4.4","331","4th and, Yew St","Vancouver","BC","CA","http://www.ilovechickpea.ca/","+1 778-994-3954","Vegan restaurant","https://www.google.com/maps/search/?api=1&query=Chickpea%20Food%20Truck&query_place_id=ChIJubNZNNZzhlQRPvnwFcpua1w"
"Moon Sushi Aburi on Dunbar (5% off website orders!)","4.2","224","4385 Dunbar St","Vancouver","British Columbia","CA","https://moonsushi.ca/","+1 604-221-7874","Sushi restaurant","https://www.google.com/maps/search/?api=1&query=Moon%20Sushi%20Aburi%20on%20Dunbar%20(5%25%20off%20website%20orders!)&query_place_id=ChIJM1ZdEBFzhlQRetiKKqAJfR0"
"Ah Long Sushi and Ah Long Ramen","4.2","210","2697 W Broadway","Vancouver","British Columbia","CA","http://ahlongsushi.com/","+1 604-730-9229","Sushi restaurant","https://www.google.com/maps/search/?api=1&query=Ah%20Long%20Sushi%20and%20Ah%20Long%20Ramen&query_place_id=ChIJPcT0Cn1zhlQRsydwzcy4c48"
"White Spot Kerrisdale","3.8","1085","5367 West Blvd","Vancouver","British Columbia","CA","https://www.whitespot.ca/locations/vancouver-kerrisdale/?utm_source=G&utm_medium=local&utm_campaign=google-local","+1 604-266-1288","Restaurant","https://www.google.com/maps/search/?api=1&query=White%20Spot%20Kerrisdale&query_place_id=ChIJkWXK_XlzhlQRxUuv-2x-KME"
"Broadway Chinese","2.7","207","1410 W Broadway","Vancouver","British Columbia","CA","https://broadwaychinese.zomi.menu/","+1 604-731-0488","Chinese restaurant","https://www.google.com/maps/search/?api=1&query=Broadway%20Chinese&query_place_id=ChIJEWTRCMdzhlQRFMr-oBhK68U"
"Ginger & Chili Restaurant","4","173","4409 W 10th Ave","Vancouver","British Columbia","CA","http://gingerandchili.ca/","+1 604-222-2223","Chinese restaurant","https://www.google.com/maps/search/?api=1&query=Ginger%20%26%20Chili%20Restaurant&query_place_id=ChIJGdsIU-RyhlQRRpbfk63Xtcg"
"Golden Seafood Restaurant","3.9","478","2425 Nanaimo St","Vancouver","British Columbia","CA","https://www.goldenseafoodvancouver.com/","+1 604-568-8268","Chinese restaurant","https://www.google.com/maps/search/?api=1&query=Golden%20Seafood%20Restaurant&query_place_id=ChIJmSJcZBBxhlQRk7ZH58ST_T8"
"Golden Swan Restaurant","3.9","1385","5380 Victoria Dr","Vancouver","British Columbia","CA","http://www.goldenswanrestaurant.com/","+1 604-321-6621","Chinese restaurant","https://www.google.com/maps/search/?api=1&query=Golden%20Swan%20Restaurant&query_place_id=ChIJH2JAMh50hlQRJp-aHtMNvTg"
"Fortune City Seafood Restaurant","4","947","2800 E 1st Ave #302","Vancouver","British Columbia","CA",,"+1 604-255-0008","Chinese restaurant","https://www.google.com/maps/search/?api=1&query=Fortune%20City%20Seafood%20Restaurant&query_place_id=ChIJ_eZfPi5xhlQRHJc5fdeMTao"
"Sio Bread, Café and Japanese restaurant","4.6","46","636 Main St","Vancouver","British Columbia","CA","https://www.ubereats.com/ca/store/sio-bread-cafe-and-japanese-restaurant/cdWnsWpEX9mPmP-syK8FpA?diningMode=DELIVERY&surfaceName=","+1 604-564-0550","Japanese restaurant","https://www.google.com/maps/search/?api=1&query=Sio%20Bread%2C%20Caf%C3%A9%20and%20Japanese%20restaurant&query_place_id=ChIJ0X9bTgBxhlQRerl1l4dX_gs"
"Hitoe Sushi Japanese Restaurant Gluten Free","4.4","583","3347 W 4th Ave","Vancouver","British Columbia","CA","https://hitoesushivancouver.blog.fc2.com/blog-entry-1.html","+1 778-371-4619","Sushi restaurant","https://www.google.com/maps/search/?api=1&query=Hitoe%20Sushi%20Japanese%20Restaurant%20Gluten%20Free&query_place_id=ChIJbfxpbFRyhlQRHkRD1iYvHss"
"Sun Bo Kong Vegetarian Restaurant","4.4","1175","1363 Kingsway","Vancouver","British Columbia","CA","http://sunbokong.com/","+1 604-255-8927","Vegetarian restaurant","https://www.google.com/maps/search/?api=1&query=Sun%20Bo%20Kong%20Vegetarian%20Restaurant&query_place_id=ChIJAQBwO6t2hlQRZgyCaYHhQVA"
"Vallarta's Mexican Restaurant(Best Price on Website!)","4.1","598","2891 E Broadway","Vancouver","British Columbia","CA","https://vallartasmexicanrestaurant.zomi.menu/","+1 604-216-2535","Mexican restaurant","https://www.google.com/maps/search/?api=1&query=Vallarta's%20Mexican%20Restaurant(Best%20Price%20on%20Website!)&query_place_id=ChIJNSkqzMx2hlQRkfwrw3Z2MEE"
"Happy Family Restaurant","3.9","600","2178 Kingsway","Vancouver","British Columbia","CA","https://www.happyfamilyeats.com/","+1 604-677-8286","Chinese restaurant","https://www.google.com/maps/search/?api=1&query=Happy%20Family%20Restaurant&query_place_id=ChIJK_D5wqV2hlQR1sAxRjhdvN4"
"Truong Thanh Restaurant","4.2","750","2096 Kingsway","Vancouver","British Columbia","CA","https://truongthanhrestaurant.shop/","+1 604-876-9288","Vietnamese restaurant","https://www.google.com/maps/search/?api=1&query=Truong%20Thanh%20Restaurant&query_place_id=ChIJf552-aV2hlQRpwQgOGxgVC4"
"Pho Win Vietnamese Restaurant","3.6","190","2138 E Hastings St","Vancouver","British Columbia","CA","https://phowin.zomi.menu/","+1 778-379-9078","Pho restaurant","https://www.google.com/maps/search/?api=1&query=Pho%20Win%20Vietnamese%20Restaurant&query_place_id=ChIJq7BlFRhxhlQRoP-i8mTeZT4"
"Indian Village Eatery","4.1","259","2745 E Hastings St #130","Vancouver","British Columbia","CA","http://indianvillageeatery.zomi.menu/","+1 604-558-3111","Indian restaurant","https://www.google.com/maps/search/?api=1&query=Indian%20Village%20Eatery&query_place_id=ChIJbYtdVSBxhlQRUV551_DhGRE"
"Pelican Seafood Restaurant(Best Price on Website)","3.9","580","1895 E Hastings St","Vancouver","British Columbia","CA","https://pelicanseafoodrestaurant.zomi.menu/","+1 604-251-3395","Seafood restaurant","https://www.google.com/maps/search/?api=1&query=Pelican%20Seafood%20Restaurant(Best%20Price%20on%20Website)&query_place_id=ChIJkS-ZCxdxhlQRazc_CY892dE"
"Fatburger Harbour Centre","4.1","150","555 W Hastings St","Vancouver","British Columbia","CA","https://www.fatburgercanada.com/locations/fatburger-harbourcentre/","+1 604-336-3966","Hamburger restaurant","https://www.google.com/maps/search/?api=1&query=Fatburger%20Harbour%20Centre&query_place_id=ChIJU3WoZ3hxhlQRtAzJPACsUmU"
"Poke N Chat (Ramen, Poke, Bubble Tea)","4.4","510","306 Water St #2","Vancouver","British Columbia","CA","https://www.pokenchat.com/","(617) 785-8956","Japanese restaurant","https://www.google.com/maps/search/?api=1&query=Poke%20N%20Chat%20(Ramen%2C%20Poke%2C%20Bubble%20Tea)&query_place_id=ChIJrbfmfXxxhlQRcgCbzohZf0I"
"Tentatsu Japanese Sushi Restaurant","3.9","975","2430 E Hastings St","Vancouver","British Columbia","CA","https://tentatsujapanese.com/","+1 604-255-3733","Japanese restaurant","https://www.google.com/maps/search/?api=1&query=Tentatsu%20Japanese%20Sushi%20Restaurant&query_place_id=ChIJt86FdCJxhlQRM_SJVWv_cIg"
"JJ's Restaurant at Vancouver Community College","4.4","58","250 W Pender St #320","Vancouver","British Columbia","CA","http://www.vcc.ca/services/eat-shop--more/jjs-restaurant/","+1 604-443-8479","Restaurant","https://www.google.com/maps/search/?api=1&query=JJ's%20Restaurant%20at%20Vancouver%20Community%20College&query_place_id=ChIJCXRHbXlxhlQRY8leL89SfeY"
"Chincha Smoke & Vape Shop","4.9","287","8710 Granville St","Vancouver","British Columbia","CA","http://www.chinchasmokeshop.ca/","+1 604-264-0330","Vaporizer store","https://www.google.com/maps/search/?api=1&query=Chincha%20Smoke%20%26%20Vape%20Shop&query_place_id=ChIJKcaw4b91hlQRDS7BRu9NZu8"
"HellCrust Pizza- Vancouver","4.3","443","433 Seymour St","Vancouver","British Columbia","CA","https://vancouver-seymourst.hellcrustpizza.com/zgrid/proc/site/mobile/start.jsp","+1 604-336-3539","Pizza restaurant","https://www.google.com/maps/search/?api=1&query=HellCrust%20Pizza-%20Vancouver&query_place_id=ChIJnSyWhGdxhlQRa7bI5vp3taw"
"Subway","3.5","202","8347 Granville St","Vancouver","British Columbia","CA","https://restaurants.subway.com/canada/bc/vancouver/8347-granville-st?utm_source=yxt-goog&utm_medium=local&utm_term=acq&utm_content=11695&utm_campaign=evergreen-2020&y_source=1_MTQ5MjA1MzctNzE1LWxvY2F0aW9uLndlYnNpdGU%3D","+1 604-263-5515","Sandwich shop","https://www.google.com/maps/search/?api=1&query=Subway&query_place_id=ChIJK7VneZN0hlQRaEpkDjlfPpo"
"De Dutch","4","1176","1055 Canada Pl Unit 60","Vancouver","British Columbia","CA","https://dedutch.com/locations/vancouver-burrard-landing/","+1 604-647-7530","Breakfast restaurant","https://www.google.com/maps/search/?api=1&query=De%20Dutch&query_place_id=ChIJh_rOWINxhlQRR_kAbPqGhHU"
"Bubble Bear Bubble Tea 泡泡熊 since 2017 (BubbleBearCafe.com)","4.2","173","8051 Granville St","Vancouver","British Columbia","CA","http://www.bubblebearcafe.com/","+1 604-266-2668","Bubble tea store","https://www.google.com/maps/search/?api=1&query=Bubble%20Bear%20Bubble%20Tea%20%E6%B3%A1%E6%B3%A1%E7%86%8A%20since%202017%20(BubbleBearCafe.com)&query_place_id=ChIJA6XGvpN0hlQRWtcRqdoWHAM"
"Homa Grill & Donair","4.4","1091","548 Seymour st Homa resaturant","Vancouver","BC","CA","http://homarestaurant.ca/","+1 236-990-2360","Mediterranean restaurant","https://www.google.com/maps/search/?api=1&query=Homa%20Grill%20%26%20Donair&query_place_id=ChIJrze9xnhxhlQR_Ti-FoVCy9k"
"Mosaic Grille","4.2","353","655 Burrard St","Vancouver","British Columbia","CA","http://vancouver.hyatt.com/en/hotel/dining/MosaicGrille.html?src=corp_outlets_gmb_seo_YVRRVR1","+1 778-239-8195","Bar & grill","https://www.google.com/maps/search/?api=1&query=Mosaic%20Grille&query_place_id=ChIJ0xgBlYFxhlQRJXKhZLI71wE"
"Miko Sushi Japanese Restaurant","4.3","881","1335 Robson St","Vancouver","British Columbia","CA","https://www.instagram.com/mikosushijapanese/?hl=en","+1 604-681-0339","Sushi restaurant","https://www.google.com/maps/search/?api=1&query=Miko%20Sushi%20Japanese%20Restaurant&query_place_id=ChIJ1c-DQIdxhlQRzqqaJTtYHf0"
"The Poke Guy","4.6","312","840 Howe St #150","Vancouver","British Columbia","CA","https://www.thepokeguy.ca/","+1 778-737-7199","Restaurant","https://www.google.com/maps/search/?api=1&query=The%20Poke%20Guy&query_place_id=ChIJebHiraNxhlQRQny-Kd2Ejeo"
"Okami Sushi - Japanese Restaurant, Vancouver BC","4.8","317","1226 Bute St","Vancouver","British Columbia","CA","https://okamisushi.zomi.menu/","+1 604-559-6668","Sushi restaurant","https://www.google.com/maps/search/?api=1&query=Okami%20Sushi%20-%20Japanese%20Restaurant%2C%20Vancouver%20BC&query_place_id=ChIJ8aDgLb9zhlQRlHrceu1afXU"
"Prestons Restaurant + Lounge Vancouver","4","339","1177 W Pender St","Vancouver","British Columbia","CA","https://www.prestonsvancouver.ca/","+1 604-673-2173","Restaurant","https://www.google.com/maps/search/?api=1&query=Prestons%20Restaurant%20%2B%20Lounge%20Vancouver&query_place_id=ChIJ1-V8VYFxhlQRrV7eXCmKzDg"
"Kosoo Korean Chicken & BBQ - Robson Location","4.2","1233","1128 Robson St","Vancouver","British Columbia","CA","http://kosoo.ca/","+1 604-428-8414","Korean restaurant","https://www.google.com/maps/search/?api=1&query=Kosoo%20Korean%20Chicken%20%26%20BBQ%20-%20Robson%20Location&query_place_id=ChIJA4UmUSFxhlQR7HaNyRWpQy0"
"Kosoo Korean Restaurant - Cardero Location","4.1","1125","832 Cardero St","Vancouver","British Columbia","CA","http://www.kosoo.ca/","+1 604-563-5556","Korean restaurant","https://www.google.com/maps/search/?api=1&query=Kosoo%20Korean%20Restaurant%20-%20Cardero%20Location&query_place_id=ChIJnV8LkodxhlQRTNTwh1mtxyo"
"Gyu King Teppanyaki","4.1","449","755 Burrard St #219","Vancouver","British Columbia","CA","http://www.gyukingteppanyaki.com/","+1 604-688-7050","Teppanyaki restaurant","https://www.google.com/maps/search/?api=1&query=Gyu%20King%20Teppanyaki&query_place_id=ChIJjUuBy4FxhlQR491YVe01ovA"
"Joyeaux Café & Restaurant","4.1","936","551 Howe St","Vancouver","British Columbia","CA","http://www.joyeaux-cafe-restaurant.com/","+1 604-681-9168","Vietnamese restaurant","https://www.google.com/maps/search/?api=1&query=Joyeaux%20Caf%C3%A9%20%26%20Restaurant&query_place_id=ChIJ1-V8VYFxhlQRNmBzHpjMkXE"
"Angel Cake Cafe","3.9","908","5995 Fraser St","Vancouver","British Columbia","CA","https://www.qooway.com/olo/?AngelCafeVan","+1 604-323-8948","Cha chaan teng (Hong Kong-style cafe)","https://www.google.com/maps/search/?api=1&query=Angel%20Cake%20Cafe&query_place_id=ChIJ8Y-7fhR0hlQRRz7cZ_Zn2c0"
"Taqueria Chicatana | Mexican Restaurant in Vancouver","4.6","116","789 Gore Ave","Vancouver","British Columbia","CA","https://www.instagram.com/taqueriachicatana/",,"Taco restaurant","https://www.google.com/maps/search/?api=1&query=Taqueria%20Chicatana%20%7C%20Mexican%20Restaurant%20in%20Vancouver&query_place_id=ChIJC2a1151xhlQRRMFFe-SkCM4"
"Grand Chinese Restaurant Yaletown","4.2","526","1233 Hamilton St","Vancouver","British Columbia","CA","https://grandchineseyaletown.zomi.menu/","+1 604-681-8288","Chinese restaurant","https://www.google.com/maps/search/?api=1&query=Grand%20Chinese%20Restaurant%20Yaletown&query_place_id=ChIJM3OO5mdzhlQRwLhy5GSk-DU"
"Sun Sui Wah Seafood Restaurant","4.1","2698","3888 Main St","Vancouver","British Columbia","CA","https://sunsuiwahvancouver.ca/","+1 604-872-8822","Dim sum restaurant","https://www.google.com/maps/search/?api=1&query=Sun%20Sui%20Wah%20Seafood%20Restaurant&query_place_id=ChIJMZpqcC51hlQR_fFyw7kTx4k"
"Harambe Ethiopian Restaurant","4.2","1296","2149 Commercial Dr","Vancouver","British Columbia","CA","https://harambeethiopianrestaurant.com/","+1 604-216-1060","Ethiopian restaurant","https://www.google.com/maps/search/?api=1&query=Harambe%20Ethiopian%20Restaurant&query_place_id=ChIJNYron0hxhlQR4_hIEOCq-L8"
"Thai Son Restaurant","4.1","600","373 E Broadway","Vancouver","British Columbia","CA","http://www.thaison.ca/","+1 604-875-6436","Vietnamese restaurant","https://www.google.com/maps/search/?api=1&query=Thai%20Son%20Restaurant&query_place_id=ChIJhTvmSV9xhlQRHCAt72FjaiI"
"Sula Indian Restaurant, Commercial Drive","4.4","2577","1128 Commercial Dr","Vancouver","British Columbia","CA","https://sulaindianrestaurant.com/?utm_source=google&utm_medium=organic&utm_campaign=gmb_commercial_hp","+1 604-215-1130","Indian restaurant","https://www.google.com/maps/search/?api=1&query=Sula%20Indian%20Restaurant%2C%20Commercial%20Drive&query_place_id=ChIJi_5Fqz9xhlQRctWWsZ8SyR8"
"Peaceful Restaurant","4","958","532 W Broadway #110","Vancouver","British Columbia","CA","http://www.peacefulrestaurant.com/","+1 604-879-9878","Chinese restaurant","https://www.google.com/maps/search/?api=1&query=Peaceful%20Restaurant&query_place_id=ChIJTV7Wbd1zhlQRNNf29oteTuM"
"Prince Seafood Restaurant","4","2184","2881 Grandview Hwy","Vancouver","British Columbia","CA","http://princeseafoodrestaurant.ca/","+1 604-430-6808","Seafood restaurant","https://www.google.com/maps/search/?api=1&query=Prince%20Seafood%20Restaurant&query_place_id=ChIJF0qWk8t2hlQR0vo3wsk6Ilg"
"Hai Phong Vietnamese Restaurant","4.2","623","1242 Kingsway","Vancouver","British Columbia","CA","http://haiphongrestaurant.com/","+1 604-872-3828","Vietnamese restaurant","https://www.google.com/maps/search/?api=1&query=Hai%20Phong%20Vietnamese%20Restaurant&query_place_id=ChIJU6qp1VRxhlQRswO4F6VROaI"
"Song Huong Restaurant","4.3","833","1613 Nanaimo St","Vancouver","British Columbia","CA","https://qrcodes.pro/zmCJoh","+1 604-251-1151","Vietnamese restaurant","https://www.google.com/maps/search/?api=1&query=Song%20Huong%20Restaurant&query_place_id=ChIJOfyfDjpxhlQRF7WdGcnpblY"
"New Mandarin Seafood Restaurant","4.1","2154","4650 Gladstone St","Vancouver","British Columbia","CA","https://newmandarin.ca/","+1 604-336-9388","Cantonese restaurant","https://www.google.com/maps/search/?api=1&query=New%20Mandarin%20Seafood%20Restaurant&query_place_id=ChIJ9RNp1-V3hlQRCSbgwB636XY"
"Shilla Korean Restaurant","3.9","842","1031 Kingsway","Vancouver","British Columbia","CA","https://www.shillakoreanonline.com/","+1 604-879-1515","Restaurant","https://www.google.com/maps/search/?api=1&query=Shilla%20Korean%20Restaurant&query_place_id=ChIJEZCM8stxhlQRDfPNORNOs6Y"
"Adelitas Restaurant","4.1","674","5178 Victoria Dr","Vancouver","British Columbia","CA","http://www.adelitas.ca/","+1 604-677-1580","Mexican restaurant","https://www.google.com/maps/search/?api=1&query=Adelitas%20Restaurant&query_place_id=ChIJ2QKbpqB2hlQRm7y7SGBxMwY"
"Sabor Mexicano Restaurant","4.3","149","2665 Kingsway","Vancouver","British Columbia","CA","https://www.mexicanrestaurantvancouver.ca/","+1 604-200-8271","Mexican restaurant","https://www.google.com/maps/search/?api=1&query=Sabor%20Mexicano%20Restaurant&query_place_id=ChIJkeR0y8Z3hlQRKNOnQ4qj2Tc"
"Cosy Inn Cafe","4.2","239","4455 Dunbar St","Vancouver","British Columbia","CA","https://cosyinncafe.com/?utm_source=google&utm_medium=maps&utm_campaign=website","+1 604-224-3133","Breakfast restaurant","https://www.google.com/maps/search/?api=1&query=Cosy%20Inn%20Cafe&query_place_id=ChIJq52maxFzhlQR4g-Bzy5MbMI"
"Peaceful Restaurant","3.7","614","2394 W 4th Ave","Vancouver","British Columbia","CA","http://www.peacefulrestaurant.com/","+1 604-559-9533","Chinese restaurant","https://www.google.com/maps/search/?api=1&query=Peaceful%20Restaurant&query_place_id=ChIJgepNCbNzhlQRjveodReDx_g"
"COFU Pressed Sushi","4.8","345","1833 Anderson St #103","Vancouver","British Columbia","CA","https://pressedsushi.cofu.ca/","+1 604-730-7999","Vegan restaurant","https://www.google.com/maps/search/?api=1&query=COFU%20Pressed%20Sushi&query_place_id=ChIJn29_OzZzhlQRTvwdfqw1A98"
"Haidilao Hot Pot West Broadway - 海底捞火锅","4.8","2758","3204 W Broadway","Vancouver","British Columbia","CA","https://www.haidilao-inc.com/ca","+1 604-336-2588","Hot pot restaurant","https://www.google.com/maps/search/?api=1&query=Haidilao%20Hot%20Pot%20West%20Broadway%20-%20%E6%B5%B7%E5%BA%95%E6%8D%9E%E7%81%AB%E9%94%85&query_place_id=ChIJm01RBP9zhlQRGNHCl71WcS0"
"Neighbour's Restaurant & Pizza House","4.2","940","5108 Victoria Dr","Vancouver","British Columbia","CA","https://www.neighboursrestaurant.ca/","+1 604-327-1456","Pizza restaurant","https://www.google.com/maps/search/?api=1&query=Neighbour's%20Restaurant%20%26%20Pizza%20House&query_place_id=ChIJU_ZQ8iR0hlQRrARuEjwxOgw"
"Rice Burger","4.4","585","2630 Sasamat St","Vancouver","British Columbia","CA","http://riceburger604.com/","+1 604-716-9686","Asian fusion restaurant","https://www.google.com/maps/search/?api=1&query=Rice%20Burger&query_place_id=ChIJtSgPzeVyhlQRZoUxrkoqdiU"
"Hi-Nippon Japanese Restaurant","4.1","508","2274 W 4th Ave","Vancouver","British Columbia","CA","https://hi-nippon.ca/","+1 604-736-1766","Japanese restaurant","https://www.google.com/maps/search/?api=1&query=Hi-Nippon%20Japanese%20Restaurant&query_place_id=ChIJTYMJhrNzhlQRMI7Di-Fta5k"
"Albasha Express Shawarma & Falafel","4.3","750","1937 Cornwall Ave, Vancouver, BC V6J 1C8","Vancouver","BC","CA","http://www.albashaexpress.ca/","+1 604-336-2110","Shawarma restaurant","https://www.google.com/maps/search/?api=1&query=Albasha%20Express%20Shawarma%20%26%20Falafel&query_place_id=ChIJDTh3PatzhlQRGpB9jNaTeTU"
"La Notte Restaurant","3.9","393","3307 Dunbar St","Vancouver","British Columbia","CA","http://www.lanotte.ca/","+1 604-222-4033","Italian restaurant","https://www.google.com/maps/search/?api=1&query=La%20Notte%20Restaurant&query_place_id=ChIJAad-jgNzhlQRsgL6rD_ICaA"
"Yuwa Japanese Cuisine","4.4","440","2775 W 16th Ave","Vancouver","British Columbia","CA","http://www.yuwa.ca/","+1 604-731-9378","Japanese restaurant","https://www.google.com/maps/search/?api=1&query=Yuwa%20Japanese%20Cuisine&query_place_id=ChIJi6cGiqhzhlQRrVDv7_LlOQQ"
"Iki Japanese Restaurant","4.4","371","2756 W Broadway","Vancouver","British Columbia","CA",,"+1 604-731-4771","Sushi restaurant","https://www.google.com/maps/search/?api=1&query=Iki%20Japanese%20Restaurant&query_place_id=ChIJmxjzR6xzhlQRoGHbO57h_gQ"
"Yuji's from Japan","4.5","210","2083 Alma St","Vancouver","British Columbia","CA",,"+1 604-428-4688","Sushi restaurant","https://www.google.com/maps/search/?api=1&query=Yuji's%20from%20Japan&query_place_id=ChIJ6-o_AVZyhlQRxNX-Uqzs_Ao"
"Papaya Hut Restaurant","4.1","261","2435 Burrard St","Vancouver","British Columbia","CA","https://papayahutburrard.com/?utm_source=google&utm_medium=maps&utm_campaign=website","+1 604-739-2033","Thai restaurant","https://www.google.com/maps/search/?api=1&query=Papaya%20Hut%20Restaurant&query_place_id=ChIJmfdlgrdzhlQRngOJ7AtGexQ"
"Delhi-6 Indian Bistro","4.5","854","1766 W 7th Ave","Vancouver","British Columbia","CA","http://delhi6.ca/","+1 604-742-3311","Indian restaurant","https://www.google.com/maps/search/?api=1&query=Delhi-6%20Indian%20Bistro&query_place_id=ChIJ5QI067dzhlQRknY0UWMtaNo"
"Sahel Market & Restaurant","4.5","1654","3207 W Broadway","Vancouver","British Columbia","CA","https://sahelpersianrestaurant.com/","+1 604-423-4117","Persian restaurant","https://www.google.com/maps/search/?api=1&query=Sahel%20Market%20%26%20Restaurant&query_place_id=ChIJ3fPYPndzhlQR2aDKGEtgJOs"
"Denny's Restaurant","4.4","2333","1759 W Broadway","Vancouver","British Columbia","CA","https://www.dennys.ca/restaurant/british-columbia/vancouver-broadway-burrard/","+1 604-678-9973","Restaurant","https://www.google.com/maps/search/?api=1&query=Denny's%20Restaurant&query_place_id=ChIJFx8XKbhzhlQRs4CTHYMO2mg"
"Ridge Garden Restaurant","4.1","130","4009 Macdonald St","Vancouver","British Columbia","CA","http://www.ridgegardenrestaurant.ca/","+1 604-736-5231","Chinese restaurant","https://www.google.com/maps/search/?api=1&query=Ridge%20Garden%20Restaurant&query_place_id=ChIJJ2ni0qRzhlQRMvkbHB2v5k0"
"Las Margaritas","4.1","3048","1999 W 4th Ave","Vancouver","British Columbia","CA","http://www.lasmargaritas.com/","+1 604-734-7117","Mexican restaurant","https://www.google.com/maps/search/?api=1&query=Las%20Margaritas&query_place_id=ChIJp7R2erZzhlQRT9uOtRCRz6I"
"Döner Kebab","4.4","313","1956 W 4th Ave","Vancouver","British Columbia","CA",,"+1 604-558-1050","Middle Eastern restaurant","https://www.google.com/maps/search/?api=1&query=D%C3%B6ner%20Kebab&query_place_id=ChIJ-zlRcbZzhlQRG3HPhgcsqU4"
"Bing & Noodle World","3.9","415","8185 Granville St","Vancouver","British Columbia","CA",,"+1 604-264-7873","Chinese restaurant","https://www.google.com/maps/search/?api=1&query=Bing%20%26%20Noodle%20World&query_place_id=ChIJUb9fR8t1hlQRVI-KERekW88"
"Simpatico Ristorante","4","489","2222 W 4th Ave","Vancouver","British Columbia","CA","http://simpaticorestaurant.ca/","+1 604-733-6824","Greek restaurant","https://www.google.com/maps/search/?api=1&query=Simpatico%20Ristorante&query_place_id=ChIJeem8drRzhlQRgoDiv9P_G8o"
"Freshslice Pizza","4.6","1172","8618 Granville St","Vancouver","British Columbia","CA","https://www.freshslice.com/pizza-in-vancouver/","+1 604-569-3111","Pizza restaurant","https://www.google.com/maps/search/?api=1&query=Freshslice%20Pizza&query_place_id=ChIJkbCrN-t0hlQRccJLDCzYmRI"
"Sushi King House","4.1","540","8176 Granville St","Vancouver","British Columbia","CA",,"+1 604-269-3555","Sushi restaurant","https://www.google.com/maps/search/?api=1&query=Sushi%20King%20House&query_place_id=ChIJFeHunZN0hlQRzqvyeSQDmZY"
"Krepa Cafe","4.7","66","8030 Granville St","Vancouver","British Columbia","CA","https://krepacafe.ca/","+1 604-731-6813","Coffee shop","https://www.google.com/maps/search/?api=1&query=Krepa%20Cafe&query_place_id=ChIJwwa9YSt1hlQRofaKgSwAuSM"
"Tai Tung Chinese Seafood Restaurant","3.8","318","8012 Granville St","Vancouver","British Columbia","CA",,"+1 604-261-6328","Chinese restaurant","https://www.google.com/maps/search/?api=1&query=Tai%20Tung%20Chinese%20Seafood%20Restaurant&query_place_id=ChIJsZfwuJN0hlQRnt3UvnryIXU"
"Grand Honour Restaurant","3.8","319","5701 Granville St B1","Vancouver","British Columbia","CA","http://www.grandhonour.com/","+1 604-263-3983","Chinese restaurant","https://www.google.com/maps/search/?api=1&query=Grand%20Honour%20Restaurant&query_place_id=ChIJ5byQMYBzhlQRb2GqFTVT4vA"
"Ajisai 2 Go","4.6","34","2087 W 42nd Ave","Vancouver","British Columbia","CA","https://sushibarajisai.com/ajisai-2-go","+1 604-266-1428","Takeout Restaurant","https://www.google.com/maps/search/?api=1&query=Ajisai%202%20Go&query_place_id=ChIJTZdlIsZzhlQR6bjtsau2HZM"
"BBT Café","3.8","334","5979 West Blvd","Vancouver","British Columbia","CA","http://www.bbtcafe.com/","+1 604-266-2195","Taiwanese restaurant","https://www.google.com/maps/search/?api=1&query=BBT%20Caf%C3%A9&query_place_id=ChIJg-1zYntzhlQROHIKA_RrtG0"
"James on Hastings Chinese Restaurant(Best Price on Website!)","3.9","835","2683 E Hastings St","Vancouver","British Columbia","CA","https://jamesonhastings.zomi.menu/","+1 604-255-3188","Chinese restaurant","https://www.google.com/maps/search/?api=1&query=James%20on%20Hastings%20Chinese%20Restaurant(Best%20Price%20on%20Website!)&query_place_id=ChIJJ_xYpSFxhlQRLEF_wMZekmU"
"On Lok Restaurant & Won-ton House","3.8","1143","2010 E Hastings St","Vancouver","British Columbia","CA","http://www.onlokrestaurant.com/","+1 604-253-3656","Chinese restaurant","https://www.google.com/maps/search/?api=1&query=On%20Lok%20Restaurant%20%26%20Won-ton%20House&query_place_id=ChIJOZdPhhdxhlQRo8Y745zIGv8"
"Hanoi Pho Restaurant","4.3","230","406 E Hastings St","Vancouver","British Columbia","CA",,"+1 604-251-6566","Vietnamese restaurant","https://www.google.com/maps/search/?api=1&query=Hanoi%20Pho%20Restaurant&query_place_id=ChIJ-8gI7HFxhlQRj6YQU-ItGrM"
"Royal Palace Seafood Restaurant","3.9","762","2163 E Hastings St","Vancouver","British Columbia","CA","https://royalpalaceseafoodrestaurant.zomi.menu/","+1 604-255-0698","Chinese restaurant","https://www.google.com/maps/search/?api=1&query=Royal%20Palace%20Seafood%20Restaurant&query_place_id=ChIJOYd6tKhxhlQRmC3tcMAl3jc"
"Ignite Pizzeria Gastown (Express)","4.6","494","508 W Cordova St","Vancouver","British Columbia","CA","https://www.ignitepizzeria.com/","+1 604-428-4554","Pizza restaurant","https://www.google.com/maps/search/?api=1&query=Ignite%20Pizzeria%20Gastown%20(Express)&query_place_id=ChIJ617TQ3hxhlQRMnd9NkjIDc0"
"Silk Lounge - Indian Restaurant","4.3","606","132 Powell St","Vancouver","British Columbia","CA","http://www.silk-lounge.ca/","+1 778-379-6900","Indian restaurant","https://www.google.com/maps/search/?api=1&query=Silk%20Lounge%20-%20Indian%20Restaurant&query_place_id=ChIJyaFQ4hZxhlQRGovIuZPvCd4"
"Momo Sushi","4.5","3034","6-375 Water St","Vancouver","British Columbia","CA","http://momogastown.ca/","+1 604-683-7632","Sushi restaurant","https://www.google.com/maps/search/?api=1&query=Momo%20Sushi&query_place_id=ChIJP0wBP3hxhlQRTAaG6y4I_nQ"
"The Poke Guy","4.6","1193","420 Richards St","Vancouver","British Columbia","CA","http://www.thepokeguy.ca/","+1 778-379-8455","Hawaiian restaurant","https://www.google.com/maps/search/?api=1&query=The%20Poke%20Guy&query_place_id=ChIJoXAI-XhxhlQRsRZg0KF8PpI"
"Roundel Restaurant & Bar","4.5","738","2465 E Hastings St","Vancouver","British Columbia","CA","https://roundel.zomi.menu/","+1 604-253-2522","Restaurant","https://www.google.com/maps/search/?api=1&query=Roundel%20Restaurant%20%26%20Bar&query_place_id=ChIJuTCFCyJxhlQRkhUxtqDeWhA"
"Showcase Restaurant & Bar","4.3","402","1122 W Hastings St","Vancouver","British Columbia","CA","http://www.showcaserestaurant.com/","+1 604-639-4040","Restaurant","https://www.google.com/maps/search/?api=1&query=Showcase%20Restaurant%20%26%20Bar&query_place_id=ChIJUwY964NxhlQRslxEl4a2VZM"
"Pokerrito","4.4","1380","558 Dunsmuir St","Vancouver","British Columbia","CA","http://www.pokerrito.ca/","+1 778-379-1115","Asian restaurant","https://www.google.com/maps/search/?api=1&query=Pokerrito&query_place_id=ChIJVVXFLH9xhlQRoeNPfjnP1uE"
"Harbour Spoon","4.3","175","555 W Hastings St FC12","Vancouver","British Columbia","CA","http://www.harbourspoon.com/","+1 778-953-2253","Eastern European restaurant","https://www.google.com/maps/search/?api=1&query=Harbour%20Spoon&query_place_id=ChIJBxmyyfdxhlQRjNpqKe1wZlw"
"Jang Mo Jib Korean Restaurant","4","1790","808 Bute St","Vancouver","British Columbia","CA",,,"Korean restaurant","https://www.google.com/maps/search/?api=1&query=Jang%20Mo%20Jib%20Korean%20Restaurant&query_place_id=ChIJvQ6UDohxhlQR_XhiTxjYBZs"
"Notch8 Restaurant & Bar","4.1","1397","900 W Georgia St","Vancouver","British Columbia","CA","http://www.notch8-dining.com/","+1 604-662-1900","Canadian restaurant","https://www.google.com/maps/search/?api=1&query=Notch8%20Restaurant%20%26%20Bar&query_place_id=ChIJg_-i0YFxhlQRIF9uO3r3DmM"
"Earls Kitchen + Bar","4.3","3300","905 Hornby St","Vancouver","British Columbia","CA","https://www.earls.ca/locations/test-kitchen","+1 604-682-6700","Restaurant","https://www.google.com/maps/search/?api=1&query=Earls%20Kitchen%20%2B%20Bar&query_place_id=ChIJDe-U4n9xhlQRHe5feMqgXwM"
"Mangez Mangez Cafe / restaurant/catering","4.6","146","1100 Melville St #120","Vancouver","British Columbia","CA","https://mangezmangez.com/","+1 604-669-4142","Restaurant","https://www.google.com/maps/search/?api=1&query=Mangez%20Mangez%20Cafe%20%2F%20restaurant%2Fcatering&query_place_id=ChIJE7IaaoFxhlQRlEVkqZW9Oog"
"Western Lake Chinese Seafood Restaurant","4.3","3634","4989 Victoria Dr","Vancouver","British Columbia","CA","http://www.westernlake.ca/","+1 604-321-6862","Seafood restaurant","https://www.google.com/maps/search/?api=1&query=Western%20Lake%20Chinese%20Seafood%20Restaurant&query_place_id=ChIJwTtWOKd2hlQRxxBK7OhOA-E"
"The Italians","4.3","452","1220 Bute St","Vancouver","British Columbia","CA","http://theitaliansrestaurant.com/","+1 604-559-5034","Italian restaurant","https://www.google.com/maps/search/?api=1&query=The%20Italians&query_place_id=ChIJJZFm0PtzhlQRg1ty-K6LJ9s"
"Kamei Royale Japanese Restaurant","4.3","1091","1066 W Hastings St","Vancouver","British Columbia","CA","https://www.kameiroyale.com/","+1 604-687-8588","Japanese restaurant","https://www.google.com/maps/search/?api=1&query=Kamei%20Royale%20Japanese%20Restaurant&query_place_id=ChIJubpntoFxhlQRH2ZmrPqGlYU"
"Shiro","4.5","792","3096 Cambie St.","Vancouver","British Columbia","CA","https://www.facebook.com/shirojapaneserestaurant.vancouver/","+1 604-874-0027","Japanese restaurant","https://www.google.com/maps/search/?api=1&query=Shiro&query_place_id=ChIJRVCPvuhzhlQROwcFYOPZJFA"
"Monsoon Curry Indian Restaurant","4.5","514","3466 Cambie St.","Vancouver","British Columbia","CA","https://monsoonvancouver.com/","+1 604-873-3686","Indian restaurant","https://www.google.com/maps/search/?api=1&query=Monsoon%20Curry%20Indian%20Restaurant&query_place_id=ChIJa8IwZsBzhlQR9QFUO9kWwOw"
"Nuba in Yaletown","4.2","1483","508 Davie St","Vancouver","British Columbia","CA","http://www.nuba.ca/","+1 604-661-4129","Restaurant","https://www.google.com/maps/search/?api=1&query=Nuba%20in%20Yaletown&query_place_id=ChIJZZP6HNRzhlQRTgKreAfu7O4"
"Maizal RMF | Mexican Restaurant","4.4","754","2815 Main St","Vancouver","British Columbia","CA","http://maizalmsf.ca/","+1 604-709-0813","Mexican restaurant","https://www.google.com/maps/search/?api=1&query=Maizal%20RMF%20%7C%20Mexican%20Restaurant&query_place_id=ChIJS7TPzuNzhlQRDLeDEoR65kU"
"Rayhan","4.2","361","3170 Oak St","Vancouver","British Columbia","CA","http://www.rayhanrestaurant.com/","+1 604-731-3553","Mediterranean restaurant","https://www.google.com/maps/search/?api=1&query=Rayhan&query_place_id=ChIJU8DtYepzhlQR9IUz37U4e5w"
"Moltaqa Moroccan Restaurant Mainland Street Yaletown","4.4","1930","1002 Mainland St","Vancouver","British Columbia","CA","https://www.moltaqarestaurant.ca/","+1 604-841-1182","Moroccan restaurant","https://www.google.com/maps/search/?api=1&query=Moltaqa%20Moroccan%20Restaurant%20Mainland%20Street%20Yaletown&query_place_id=ChIJnbZ_HnpxhlQRYtAR6udPH4g"
"TonTon Sushi","4.5","1144","4018 Cambie St.","Vancouver","British Columbia","CA","http://www.tontonsushi.com/","+1 604-428-2742","Sushi restaurant","https://www.google.com/maps/search/?api=1&query=TonTon%20Sushi&query_place_id=ChIJDxxK9V9zhlQRKohrRXdNE-w"
"Kishimoto Japanese Restaurant","4.4","1188","2054 Commercial Dr","Vancouver","British Columbia","CA","http://www.kishimotorestaurant.com/","+1 604-255-5550","Japanese restaurant","https://www.google.com/maps/search/?api=1&query=Kishimoto%20Japanese%20Restaurant&query_place_id=ChIJZxCTL0ZxhlQRu0UC3PS9PgA"
"Apollo's (Daybreakers) Restaurant | Brunch Vancouver","4.3","1316","2095 Commercial Dr","Vancouver","British Columbia","CA","https://apollosrestaurant.com/","+1 604-336-7464","Greek restaurant","https://www.google.com/maps/search/?api=1&query=Apollo's%20(Daybreakers)%20Restaurant%20%7C%20Brunch%20Vancouver&query_place_id=ChIJ7cyqJUZxhlQRnU84VhwKiHQ"
"JJ Dosa (dosai) Indian Restaurant","4.6","853","4354 Fraser St","Vancouver","British Columbia","CA","https://jjdosai.ca/","+1 604-873-9263","Indian restaurant","https://www.google.com/maps/search/?api=1&query=JJ%20Dosa%20(dosai)%20Indian%20Restaurant&query_place_id=ChIJR47ZCrx1hlQRBPfX8-ul2zU"
"Tacofino Ocho","4.1","1666","8 E 5th Ave","Vancouver","British Columbia","CA","https://www.tacofino.com/location/ocho","+1 604-709-0015","Burrito restaurant","https://www.google.com/maps/search/?api=1&query=Tacofino%20Ocho&query_place_id=ChIJE3nuJxpzhlQRYFKAJ9Sv09I"
"McCleery Golf Restaurant","4.2","13","7188 Macdonald St","Vancouver","British Columbia","CA","https://vancouver.ca/parks-recreation-culture/special-events.aspx","+1 604-257-8182","Restaurant","https://www.google.com/maps/search/?api=1&query=McCleery%20Golf%20Restaurant&query_place_id=ChIJ71orYqJ0hlQR7mTXCRvhtQ8"
"Lucky Fortune Seafood Restaurant","3.6","74","8012 Granville St","Vancouver","British Columbia","CA","http://luckyfortuneseafood.zomi.menu/","+1 604-261-6328","Cantonese restaurant","https://www.google.com/maps/search/?api=1&query=Lucky%20Fortune%20Seafood%20Restaurant&query_place_id=ChIJR8wO0Fl1hlQRaqNfCfd3dOU"
"Simply Delicious Restaurant & Bar","4.1","516","4316 Main St","Vancouver","British Columbia","CA","https://sdeatery.com/","+1 604-875-9866","Asian fusion restaurant","https://www.google.com/maps/search/?api=1&query=Simply%20Delicious%20Restaurant%20%26%20Bar&query_place_id=ChIJG8-2pfdzhlQR3kuogd8C86g"
"Tutto Restaurant & Bar","4.4","910","901 Homer St","Vancouver","British Columbia","CA","http://www.tuttorestaurant.ca/","+1 604-633-8868","Italian restaurant","https://www.google.com/maps/search/?api=1&query=Tutto%20Restaurant%20%26%20Bar&query_place_id=ChIJk5D8YERxhlQRbJ_4S2KU7c0"
"Ho Yuen Cafe","4.1","493","1750 W 75th Ave #113","Vancouver","British Columbia","CA","https://hoyuencafe.ca/","+1 226-368-3891","Hong Kong style fast food restaurant","https://www.google.com/maps/search/?api=1&query=Ho%20Yuen%20Cafe&query_place_id=ChIJ9yUyE4x1hlQRRIHj1MLym9w"
"Sushi Wow","4.5","626","8273 Granville St","Vancouver","British Columbia","CA","https://sushiwow.ca/","+1 604-261-8112","Japanese restaurant","https://www.google.com/maps/search/?api=1&query=Sushi%20Wow&query_place_id=ChIJh0gInZN0hlQRIu7VobALFYE"
"Ipoh Malay Cuisine","4","706","1316 W 73rd Ave","Vancouver","British Columbia","CA","https://www.instagram.com/ipohmalaycuisine?igsh=MW8xd2VuNWc1cWxtMg%3D%3D&utm_source=qr","+1 604-559-9898","Malaysian restaurant","https://www.google.com/maps/search/?api=1&query=Ipoh%20Malay%20Cuisine&query_place_id=ChIJA6XvZul0hlQRkENjK8lTR_4"
"A&S FUSION RESTRO + BAR","5","22","8028 Granville St","Vancouver","British Columbia","CA","https://ansfusion.ca/","+1 604-563-0403","Fine dining restaurant","https://www.google.com/maps/search/?api=1&query=A%26S%20FUSION%20RESTRO%20%2B%20BAR&query_place_id=ChIJM3xfjO11hlQR6Fc8d3__q5k"
"Kyuzo Japanese Restaurant","4.2","214","5701 Granville St #112","Vancouver","British Columbia","CA","http://kyuzo-japanese-restaurant.com/","+1 604-620-9979","Japanese restaurant","https://www.google.com/maps/search/?api=1&query=Kyuzo%20Japanese%20Restaurant&query_place_id=ChIJeXYDNIBzhlQRNkGaTWf3OYI"
"Thai Son Restaurant (Marine Dr, Vancouver)","3.9","446","1450 SW Marine Dr","Vancouver","British Columbia","CA","http://thaison.ca/","+1 604-559-6436","Vietnamese restaurant","https://www.google.com/maps/search/?api=1&query=Thai%20Son%20Restaurant%20(Marine%20Dr%2C%20Vancouver)&query_place_id=ChIJ-WKsPup0hlQRFSu9T1WoLQ8"
"BESPOKE & SUSHI","4.6","425","1306 W 73rd Ave","Vancouver","British Columbia","CA","https://bespokesushi.zomi.menu/","+1 604-689-8808","Japanese restaurant","https://www.google.com/maps/search/?api=1&query=BESPOKE%20%26%20SUSHI&query_place_id=ChIJ0bGJRhl1hlQR8nqrqudRBI4"
"Mr. Tube Steak","4.8","39","155 W Kent Ave N","Vancouver","British Columbia","CA","https://mrtubesteak.ca/","+1 778-233-3564","Caterer","https://www.google.com/maps/search/?api=1&query=Mr.%20Tube%20Steak&query_place_id=ChIJF2MojKVxhlQRi0k-2pRaRPU"
"Red Star Seafood Restaurant","4","1036","8298 Granville St","Vancouver","British Columbia","CA","https://www.redstarvancouver.com/","+1 604-261-8389","Chinese restaurant","https://www.google.com/maps/search/?api=1&query=Red%20Star%20Seafood%20Restaurant&query_place_id=ChIJGYSUD4FxhlQRPynZNtbWUDM"
"Pho Ever","4.2","247","8178 Granville St","Vancouver","British Columbia","CA","https://phoever.zomi.menu/","+1 778-379-8387","Pho restaurant","https://www.google.com/maps/search/?api=1&query=Pho%20Ever&query_place_id=ChIJL8TunZN0hlQRvuJ8dwgvnD0"
"Southern Delicacy","4.1","174","6055 West Blvd","Vancouver","British Columbia","CA","https://www.southerndelicacy.ca/","+1 604-559-3939","Chinese restaurant","https://www.google.com/maps/search/?api=1&query=Southern%20Delicacy&query_place_id=ChIJ6WbKatZzhlQRXsf1_W3mzw4"
"Snackshot Marpole","4.1","647","7980 Granville St","Vancouver","British Columbia","CA","https://snackshot.ca/?fbclid=PAQ0xDSwK-A2tleHRuA2FlbQIxMQABp_w160Icww0jqoyds7sB7oRVQ7rLgG6DwifujSlob-E6Lhiv_huMxD9VtZdJ_aem_tpHaVz842BDstqa_Q8QBkQ","+1 604-559-7980","Dessert shop","https://www.google.com/maps/search/?api=1&query=Snackshot%20Marpole&query_place_id=ChIJQV05z5N0hlQRGHzxa5RUUTA"
"White Spot (Best Western)","3.6","1025","1041 SW Marine Dr","Vancouver","British Columbia","CA","https://www.whitespot.ca/locations/vancouver-coast-hotel/?utm_source=G&utm_medium=local&utm_campaign=google-local","+1 604-263-6667","Restaurant","https://www.google.com/maps/search/?api=1&query=White%20Spot%20(Best%20Western)&query_place_id=ChIJsR4Wx-50hlQRraBRLz20in0"
"Dosa Hut","4.1","865","7233 Fraser St","Vancouver","British Columbia","CA",,"+1 604-566-3111","Indian restaurant","https://www.google.com/maps/search/?api=1&query=Dosa%20Hut&query_place_id=ChIJF7TCVEF0hlQR7fIHBPnGJUM"
"Pinyuexuan seafood restaurant","4.2","33","8532 Granville St","Vancouver","British Columbia","CA","https://pinyuexuanseafoodrestaurant.zomi.menu/","+1 604-264-7663","Chinese restaurant","https://www.google.com/maps/search/?api=1&query=Pinyuexuan%20seafood%20restaurant&query_place_id=ChIJGRNWdgB1hlQRXfDPo3Lfp20"
"iSushi Japanese & Korean Restaurant","4.6","518","3883 Rupert St","Vancouver","British Columbia","CA","https://isushivancouver.ca/","+1 604-336-6553","Japanese restaurant","https://www.google.com/maps/search/?api=1&query=iSushi%20Japanese%20%26%20Korean%20Restaurant&query_place_id=ChIJ-_BpAIZ3hlQRXkr9B4w5O64"
"Yoshida Sushi","4.8","222","5589 Victoria Dr","Vancouver","British Columbia","CA","http://instagram.com/yoshida_sushi_","+1 604-559-8322","Sushi restaurant","https://www.google.com/maps/search/?api=1&query=Yoshida%20Sushi&query_place_id=ChIJaThYL2R1hlQRQlOrLUV-z_I"
"Applause Japanese Restaurant","4.1","565","8269 Oak St","Vancouver","British Columbia","CA","https://www.applauserestaurant.ca/","+1 604-263-8968","Japanese restaurant","https://www.google.com/maps/search/?api=1&query=Applause%20Japanese%20Restaurant&query_place_id=ChIJC2NtpPJ0hlQROZoNC1bL5Z4"
"Romilano Pizza Restaurant Vancouver","4.7","300","1637 Renfrew St","Vancouver","British Columbia","CA","http://romilanopizza.com/","+1 604-428-9055","Pizza restaurant","https://www.google.com/maps/search/?api=1&query=Romilano%20Pizza%20Restaurant%20Vancouver&query_place_id=ChIJpUlbsFVxhlQRQmb_oZU56Fs"
"Lila Restaurant","4.5","170","3941 Main St","Vancouver","British Columbia","CA","https://www.lilarestaurant.ca/","+1 604-620-3256","Modern Indian restaurant","https://www.google.com/maps/search/?api=1&query=Lila%20Restaurant&query_place_id=ChIJ-07AIgFzhlQRiP1RnN_eWf8"
"LienHiep Restaurant","5","55","5083 Victoria Dr","Vancouver","British Columbia","CA",,"+1 236-470-0158","Vietnamese restaurant","https://www.google.com/maps/search/?api=1&query=LienHiep%20Restaurant&query_place_id=ChIJ13sKQ-h3hlQRBzdqXtC2ktw"
"Heritage Restaurant & Bar","4.4","87","4242 Main St","Vancouver","British Columbia","CA","https://www.eatheritage.ca/","+1 604-559-6058","Restaurant","https://www.google.com/maps/search/?api=1&query=Heritage%20Restaurant%20%26%20Bar&query_place_id=ChIJDbmbOQBzhlQRwY3F_oToAkM"
"Basil Garden Restaurant","4.2","547","2889 E Broadway","Vancouver","British Columbia","CA","http://www.basilgarden.ca/","+1 604-871-9998","Vietnamese restaurant","https://www.google.com/maps/search/?api=1&query=Basil%20Garden%20Restaurant&query_place_id=ChIJcVnTMjNxhlQRxc4XNc6isP4"
"Thai Basil Restaurant","4.1","617","2184 Cornwall Ave","Vancouver","British Columbia","CA","http://www.thaibasilvancouver.ca/","+1 604-677-6767","Thai restaurant","https://www.google.com/maps/search/?api=1&query=Thai%20Basil%20Restaurant&query_place_id=ChIJyax7tUpyhlQR4GkUHQ4UraM"
"Kuma Japanese Restaurant","4.5","361","3446 Dunbar St","Vancouver","British Columbia","CA","https://www.facebook.com/kumajapanese","+1 604-739-0170","Japanese restaurant","https://www.google.com/maps/search/?api=1&query=Kuma%20Japanese%20Restaurant&query_place_id=ChIJx5SrZARzhlQR8VZ-FPrK3mY"
"Sushi Inn Japanese restaurant","4","240","3772 W 10th Ave","Vancouver","British Columbia","CA","https://sushiinnvancouver.ca/","+1 604-739-3818","Restaurant","https://www.google.com/maps/search/?api=1&query=Sushi%20Inn%20Japanese%20restaurant&query_place_id=ChIJISKNEhFzhlQROuPTDZB9SGU"
"Milano Casa Ristorante - Best Italian Restaurant","4.3","234","4397 W 10th Ave","Vancouver","British Columbia","CA","https://milanocasaristorantewthave.zomi.menu/","+1 604-558-1112","Italian restaurant","https://www.google.com/maps/search/?api=1&query=Milano%20Casa%20Ristorante%20-%20Best%20Italian%20Restaurant&query_place_id=ChIJ7eHcu_BzhlQRSFGesrS2dh8"
"The Keg Steakhouse + Bar - Granville Island","4.2","2230","1499 Anderson St","Vancouver","British Columbia","CA","http://www.thekeg.com/en/locations/granville-island","+1 604-685-4735","Restaurant","https://www.google.com/maps/search/?api=1&query=The%20Keg%20Steakhouse%20%2B%20Bar%20-%20Granville%20Island&query_place_id=ChIJK-T5ZUbKcFMRssnXn4ubAnI"
"Little Bird Dim Sum + Craft Beer","4.2","555","2958 W 4th Ave","Vancouver","British Columbia","CA","https://littlebirddimsum.com/","+1 604-325-8132","Dim sum restaurant","https://www.google.com/maps/search/?api=1&query=Little%20Bird%20Dim%20Sum%20%2B%20Craft%20Beer&query_place_id=ChIJgxRuFx1zhlQRxKF57z3vSBI"
"Novo Italian","4.3","808","2118 Burrard St","Vancouver","British Columbia","CA","http://www.novoitalian.com/","+1 604-736-2220","Italian restaurant","https://www.google.com/maps/search/?api=1&query=Novo%20Italian&query_place_id=ChIJGUqN0rdzhlQRKgnl-CofZDk"
"JinWei Kitchen | Vancouver Restaurant","4.5","68","5351 West Blvd","Vancouver","British Columbia","CA",,"+1 778-379-5598","Chinese restaurant","https://www.google.com/maps/search/?api=1&query=JinWei%20Kitchen%20%7C%20Vancouver%20Restaurant&query_place_id=ChIJc9goDABzhlQRz2WEDiDAXHU"
"Moltan","4.3","748","1941 Cornwall Ave","Vancouver","British Columbia","CA","https://moltanrollbar.com/","+1 604-423-5677","Japanese restaurant","https://www.google.com/maps/search/?api=1&query=Moltan&query_place_id=ChIJES0Hv59zhlQR3o3zZddDP-I"
"Mr. Falafel","4.4","482","3685 W 10th Ave","Vancouver","British Columbia","CA","http://www.mrfalafel.ca/","+1 604-739-4403","Shawarma restaurant","https://www.google.com/maps/search/?api=1&query=Mr.%20Falafel&query_place_id=ChIJ7avCNP5yhlQRTs0kSKzT7G8"
"Curry N Grill East Indian Bistro {Indian Restaurants & Bar}","4.7","197","2666 Granville St","Vancouver","British Columbia","CA","https://curryngrill.ca/","+1 604-569-8191","Indian restaurant","https://www.google.com/maps/search/?api=1&query=Curry%20N%20Grill%20East%20Indian%20Bistro%20%7BIndian%20Restaurants%20%26%20Bar%7D&query_place_id=ChIJfRrPeA1zhlQRw6yhiWKYNy0"
"Sunshine Diner","4.3","915","2649 W Broadway","Vancouver","British Columbia","CA",,"+1 604-733-7717","Diner","https://www.google.com/maps/search/?api=1&query=Sunshine%20Diner&query_place_id=ChIJW0Mtya1zhlQRLI5-bJxEaLY"
"Tayybeh | Dine-in Takeout and Catering","4.8","868","2836 W 4th Ave","Vancouver","British Columbia","CA","https://tayybeh.com/","+1 236-471-6257","Caterer","https://www.google.com/maps/search/?api=1&query=Tayybeh%20%7C%20Dine-in%20Takeout%20and%20Catering&query_place_id=ChIJxxv_LiNzhlQROxtxt94s-0Q"
"Masa Japanese Restaurant Vancouver","4","1050","1414 W Broadway","Vancouver","British Columbia","CA","https://masasushi.ca/","+1 604-732-0112","Japanese restaurant","https://www.google.com/maps/search/?api=1&query=Masa%20Japanese%20Restaurant%20Vancouver&query_place_id=ChIJ5Qg8CcdzhlQRLVzT-a95-FA"
"Lanzhou Beef Noodles","4.4","222","3217 W Broadway","Vancouver","British Columbia","CA",,"+1 604-558-3217","Mandarin restaurant","https://www.google.com/maps/search/?api=1&query=Lanzhou%20Beef%20Noodles&query_place_id=ChIJkVUZnIBzhlQRet-74tBcnrs"
"Apollonia Greek Restaurant","4.5","529","1830 Fir St","Vancouver","British Columbia","CA","http://www.apolloniagreekrestaurant.com/","+1 604-736-9559","Greek restaurant","https://www.google.com/maps/search/?api=1&query=Apollonia%20Greek%20Restaurant&query_place_id=ChIJh4OQFclzhlQRv31FeuNELts"
"Octopus' Garden Restaurant","4.6","493","1995 Cornwall Ave","Vancouver","British Columbia","CA","https://www.octopusgarden-canada.com/","+1 604-734-8971","Sushi restaurant","https://www.google.com/maps/search/?api=1&query=Octopus'%20Garden%20Restaurant&query_place_id=ChIJTTGev8pzhlQR0dARpnoVhtU"
"Le Pho Vietnamese Restaurant","4.5","788","2503 E Hastings St","Vancouver","British Columbia","CA","https://www.facebook.com/LePho604/","+1 604-255-9897","Vietnamese restaurant","https://www.google.com/maps/search/?api=1&query=Le%20Pho%20Vietnamese%20Restaurant&query_place_id=ChIJDXTkDyJxhlQRa78Uyk8u9GE"
"Gobble","4.6","175","2017 W 4th Ave","Vancouver","British Columbia","CA","https://gobblevancouver.com/","+1 604-732-8111","Restaurant","https://www.google.com/maps/search/?api=1&query=Gobble&query_place_id=ChIJq6pu0bVzhlQRm2MiYL0HVsE"
"Alimentaria Mexicana","4.2","1143","1596 Johnston St","Vancouver","British Columbia","CA","https://www.alimentariamexicana.com/","+1 236-521-8438","Mexican restaurant","https://www.google.com/maps/search/?api=1&query=Alimentaria%20Mexicana&query_place_id=ChIJ6YbxflxzhlQRFMibzsZ_vsI"
"Tekkaba Omakase Restaurant","4.4","277","68 E Cordova St","Vancouver","British Columbia","CA","https://www.tekkaba.ca/","+1 604-442-7552","Japanese restaurant","https://www.google.com/maps/search/?api=1&query=Tekkaba%20Omakase%20Restaurant&query_place_id=ChIJ80a3tt5xhlQRqcNz0jYhZeg"
"Pholicious","4.6","1153","430 W Pender St","Vancouver","British Columbia","CA","https://pholiciouscafe.com/?utm_source=google&utm_medium=maps&utm_campaign=website","+1 778-379-3322","Vietnamese restaurant","https://www.google.com/maps/search/?api=1&query=Pholicious&query_place_id=ChIJZQfQ9XhxhlQRB6bAuVgAcwY"
"LanaLou's Restaurant","4.5","361","362 Powell St","Vancouver","British Columbia","CA","http://lanalous.wixsite.com/lanalous","+1 604-563-5055","Restaurant","https://www.google.com/maps/search/?api=1&query=LanaLou's%20Restaurant&query_place_id=ChIJi-YOfHFxhlQRQv-uuK9EoUk"
"Sarv restaurant","4.4","36","1205 E Hastings St","Vancouver","British Columbia","CA","http://www.sarvcatering.com/","+1 604-441-2216","Restaurant","https://www.google.com/maps/search/?api=1&query=Sarv%20restaurant&query_place_id=ChIJCZwlbuZxhlQRGHfy9-fzKdQ"
"Dosanko Restaurant","4.5","620","566 Powell St Unit #100","Vancouver","British Columbia","CA","http://dosankorestaurant.ca/","+1 604-251-2020","Japanese restaurant","https://www.google.com/maps/search/?api=1&query=Dosanko%20Restaurant&query_place_id=ChIJET2uRHJxhlQRIGUbZ-5Hi1Y"
"White Spot Kitsilano","4.2","1727","2518 W Broadway","Vancouver","British Columbia","CA","https://www.whitespot.ca/locations/vancouver-kitsilano/?utm_source=G&utm_medium=local&utm_campaign=google-local","+1 604-731-2434","Restaurant","https://www.google.com/maps/search/?api=1&query=White%20Spot%20Kitsilano&query_place_id=ChIJyR2qCq5zhlQRyz1_vsY1ARw"
"The Old Spaghetti Factory","4.4","8890","53 Water St","Vancouver","British Columbia","CA","http://www.oldspaghettifactory.ca/locations/gastown","+1 604-684-1288","Italian restaurant","https://www.google.com/maps/search/?api=1&query=The%20Old%20Spaghetti%20Factory&query_place_id=ChIJEwXWQndxhlQRRKy4phazLq0"
"Top Of Vancouver Revolving Restaurant","4.1","3201","555 W Hastings St","Vancouver","British Columbia","CA","https://topofvancouver.com/","+1 604-669-2220","Continental restaurant","https://www.google.com/maps/search/?api=1&query=Top%20Of%20Vancouver%20Revolving%20Restaurant&query_place_id=ChIJfe2sYHhxhlQRYY79aUl69vw"
"Second Beach Concession","3.6","321","8501 Stanley Park Dr","Vancouver","British Columbia","CA","https://order.vaneats.ca/secondbeach","+1 604-681-8029","Restaurant","https://www.google.com/maps/search/?api=1&query=Second%20Beach%20Concession&query_place_id=ChIJs6jf1CNyhlQRHsiDwDBOs8E"
"Sura Korean Royal Cuisine Restaurant Vancouver","4.4","2394","1518 Robson St","Vancouver","British Columbia","CA","http://www.surakoreancuisine.com/","+1 604-687-7872","Korean restaurant","https://www.google.com/maps/search/?api=1&query=Sura%20Korean%20Royal%20Cuisine%20Restaurant%20Vancouver&query_place_id=ChIJcw7-mYdxhlQRxq9ZD4tvuH0"
"Sula Indian Restaurant, Main Street","4.4","2286","4172 Main St","Vancouver","British Columbia","CA","https://sulaindianrestaurant.com/?utm_source=google&utm_medium=organic&utm_campaign=gmb_main_hp","+1 604-874-5375","Indian restaurant","https://www.google.com/maps/search/?api=1&query=Sula%20Indian%20Restaurant%2C%20Main%20Street&query_place_id=ChIJrQYJEzdzhlQRs1CzxiXdqLw"
"Third Beach Concession","3.8","295","Tatlow Walk","Vancouver","British Columbia","CA",,"+1 604-685-9549","Fast food restaurant","https://www.google.com/maps/search/?api=1&query=Third%20Beach%20Concession&query_place_id=ChIJUz8nCB1yhlQRnzxU7iJCnYA"
"Shizenya","4.5","1213","965 Hornby St","Vancouver","British Columbia","CA","https://shizenya.ca/restaurant-menu/","+1 604-568-0013","Japanese restaurant","https://www.google.com/maps/search/?api=1&query=Shizenya&query_place_id=ChIJ3WSkQdVzhlQRf-936T0TOv0"
"Sawasdee Thai Restaurant","4.4","1428","4250 Main St","Vancouver","British Columbia","CA","http://sawasdeethairestaurant.com/","+1 604-876-4030","Thai restaurant","https://www.google.com/maps/search/?api=1&query=Sawasdee%20Thai%20Restaurant&query_place_id=ChIJIcffCvdzhlQRZI-lN1QBMis"
"French Table","4","402","3916 Main St","Vancouver","British Columbia","CA","http://thefrenchtable.ca/","+1 604-689-3237","Restaurant","https://www.google.com/maps/search/?api=1&query=French%20Table&query_place_id=ChIJQ3aOHPpzhlQRmdSaUpr-CWE"
"Il Nido Italian Restaurant","4.4","387","780 Thurlow St","Vancouver","British Columbia","CA","http://www.ilnido.ca/","+1 604-685-6436","Italian restaurant","https://www.google.com/maps/search/?api=1&query=Il%20Nido%20Italian%20Restaurant&query_place_id=ChIJjx8r94BxhlQRwYW-BIoHApg"
"Dynasty Seafood Restaurant","4.2","2086","108-777 W Broadway","Vancouver","British Columbia","CA","http://dynasty-restaurant.ca/contact","+1 604-876-8388","Seafood restaurant","https://www.google.com/maps/search/?api=1&query=Dynasty%20Seafood%20Restaurant&query_place_id=ChIJUxfUJcNzhlQR6ohfXAT0j7o"
"Robba da Matti (Yaletown)","4.2","1108","1127 Mainland St","Vancouver","British Columbia","CA","https://www.robbadamatti.com/","+1 604-558-1174","Italian restaurant","https://www.google.com/maps/search/?api=1&query=Robba%20da%20Matti%20(Yaletown)&query_place_id=ChIJXeMk-NZzhlQRLt5fF5PwNiY"
"Patron Tacos & Cantina","4.3","2521","265 Robson St","Vancouver","British Columbia","CA","https://www.patrontc.com/","+1 604-558-3368","Mexican restaurant","https://www.google.com/maps/search/?api=1&query=Patron%20Tacos%20%26%20Cantina&query_place_id=ChIJlU3DzX1xhlQRQKD6yVPPrx0"
"Fisherman's Wharf Dimsum","4.6","17","342 East Kent Ave S #101","Vancouver","British Columbia","CA","http://vancouverdimsum.com/","+1 604-323-1796","Dim sum restaurant","https://www.google.com/maps/search/?api=1&query=Fisherman's%20Wharf%20Dimsum&query_place_id=ChIJVQ5xOYJ1hlQRTJ1_QHf3dYA"
"The Saigonville Restaurant","4.6","221","2129 E Hastings St","Vancouver","British Columbia","CA","https://www.thesaigonville.ca/?utm_source=google&utm_medium=wix_google_business_profile&utm_campaign=15111403240525261417","+1 778-800-6168","Vietnamese restaurant","https://www.google.com/maps/search/?api=1&query=The%20Saigonville%20Restaurant&query_place_id=ChIJj3YNOZ1xhlQRPMJ2whPmKCI"
"District Bar Restaurant Vancouver","4.1","400","121 Robson St","Vancouver","British Columbia","CA","http://www.districtbar.ca/","+1 604-336-3578","Canadian restaurant","https://www.google.com/maps/search/?api=1&query=District%20Bar%20Restaurant%20Vancouver&query_place_id=ChIJVyiQs31xhlQRvTelBNrAipY"
"Mirchi Restaurant","4.3","431","7964 Granville St","Vancouver","British Columbia","CA","https://mirchivancouver.com/?utm_source=google&utm_medium=maps&utm_campaign=website","+1 604-266-7000","Indian restaurant","https://www.google.com/maps/search/?api=1&query=Mirchi%20Restaurant&query_place_id=ChIJsY-AzpN0hlQRUDNi12On4Og"
"Dockside Restaurant","4","1525","1253 Johnston St","Vancouver","British Columbia","CA","http://www.docksidevancouver.com/","+1 604-685-7070","Restaurant","https://www.google.com/maps/search/?api=1&query=Dockside%20Restaurant&query_place_id=ChIJP6I2o89zhlQRSd2949wlALs"
"PRINKLE FRIED CHICKEN(Vancouver)","4.5","190","Across from Safeway, 8550 Granville St","Vancouver","British Columbia","CA","http://www.prinklechicken.com/","+1 604-566-2100","Fried chicken takeaway","https://www.google.com/maps/search/?api=1&query=PRINKLE%20FRIED%20CHICKEN(Vancouver)&query_place_id=ChIJKcHjOvd1hlQRumm36RnPQ3U"
"The London Fish (Windjammer Restaurant)","4.4","628","937 Commercial Dr","Vancouver","British Columbia","CA","https://thelondonfish.zomi.menu/","+1 604-876-6446","Fish & chips restaurant","https://www.google.com/maps/search/?api=1&query=The%20London%20Fish%20(Windjammer%20Restaurant)&query_place_id=ChIJSZi5euNzhlQRDKv0oXuLPDU"
"TaoTaoJu 陶陶居","4.2","105","5701 Granville St #110","Vancouver","British Columbia","CA","https://vioo.vip/TAOTAOJU","+1 778-379-2218","Chinese restaurant","https://www.google.com/maps/search/?api=1&query=TaoTaoJu%20%E9%99%B6%E9%99%B6%E5%B1%85&query_place_id=ChIJ42_DMYBzhlQRnst81B5HhFk"
"Dylan's","4.2","290","561 W 57th Ave","Vancouver","British Columbia","CA",,"+1 604-323-8064","Lunch restaurant","https://www.google.com/maps/search/?api=1&query=Dylan's&query_place_id=ChIJ21kdsmF0hlQRXIljFG2cQYA"
"Fighter Chicken(Best Price on Website！)","4.3","621","8631 Granville St","Vancouver","British Columbia","CA","https://fighterchickengranville.zomi.menu/","+1 604-225-9518","Fried chicken takeaway","https://www.google.com/maps/search/?api=1&query=Fighter%20Chicken(Best%20Price%20on%20Website%EF%BC%81)&query_place_id=ChIJX1cOoB91hlQRTMxYoMfN8ls"
"Rib & Chicken","4.5","253","8167 Granville St","Vancouver","British Columbia","CA","https://linktr.ee/ribnchickengranville","+1 604-559-2737","Korean restaurant","https://www.google.com/maps/search/?api=1&query=Rib%20%26%20Chicken&query_place_id=ChIJN95ELtR1hlQR_subttqqMhQ"
"Sushi Bar Shu","4.6","350","8099 Granville St","Vancouver","British Columbia","CA","http://www.sushibarshu.com/","+1 778-885-7109","Sushi restaurant","https://www.google.com/maps/search/?api=1&query=Sushi%20Bar%20Shu&query_place_id=ChIJ8Uf4nUJ1hlQR7DReziYfR6E"
"Keumsan Restaurant","4.2","39","8363 Granville St","Vancouver","British Columbia","CA","https://linktr.ee/keumsanrestaurant",,"Korean restaurant","https://www.google.com/maps/search/?api=1&query=Keumsan%20Restaurant&query_place_id=ChIJxexxQ7B1hlQRwkrcyk_Qu20"
"Wang's Taiwan Beef Noodle House","4","1045","8390 Granville St","Vancouver","British Columbia","CA","https://wangstaiwanhouse.com/","+1 604-266-7966","Taiwanese restaurant","https://www.google.com/maps/search/?api=1&query=Wang's%20Taiwan%20Beef%20Noodle%20House&query_place_id=ChIJU1XYoZR0hlQRidzWBktFPJI"
"The Boathouse Restaurant","4","2672","1305 Arbutus St","Vancouver","British Columbia","CA","https://www.boathouserestaurants.ca/location/boathouse-restaurants-kitsilano/","+1 604-738-5487","Restaurant","https://www.google.com/maps/search/?api=1&query=The%20Boathouse%20Restaurant&query_place_id=ChIJKQRjajVyhlQRWwpJX5rvnN4"
"Fresh Solo Pasta","4.5","552","8620 Granville St","Vancouver","British Columbia","CA","https://solopasta.net/","+1 604-269-0023","Italian restaurant","https://www.google.com/maps/search/?api=1&query=Fresh%20Solo%20Pasta&query_place_id=ChIJdydPhDd1hlQRSoMtrDBPAf8"
"Ahi Sushi Restaurant","4.6","191","2821 W Broadway","Vancouver","British Columbia","CA","http://ahisushi.ca/","+1 604-336-9808","Restaurant","https://www.google.com/maps/search/?api=1&query=Ahi%20Sushi%20Restaurant&query_place_id=ChIJQxEw1iRzhlQRdR0r5vIhsZE"
"Osaka Teppanyaki","4.4","868","1788 W Broadway #103","Vancouver","British Columbia","CA","http://www.osakavancouver.com/","+1 604-733-8258","Teppanyaki restaurant","https://www.google.com/maps/search/?api=1&query=Osaka%20Teppanyaki&query_place_id=ChIJ-e6pLLhzhlQRGWDhLGYMzwg"
"TBay Bistro","4.8","350","8636 Granville St","Vancouver","British Columbia","CA",,"+1 604-423-2666","Chinese restaurant","https://www.google.com/maps/search/?api=1&query=TBay%20Bistro&query_place_id=ChIJo6cmTGZ1hlQR9ZHp8QEa1ao"
"Paul's Omelettery Restaurant","4.4","1342","2211 Granville St","Vancouver","British Columbia","CA","http://paulsomelettery.com/","+1 604-737-2857","Breakfast restaurant","https://www.google.com/maps/search/?api=1&query=Paul's%20Omelettery%20Restaurant&query_place_id=ChIJk5Qv1cdzhlQRC9m9Hes_il8"
"Earls Kitchen + Bar","4.3","3366","1601 W Broadway","Vancouver","British Columbia","CA","https://www.earls.ca/locations/fir-street","+1 604-736-5663","Restaurant","https://www.google.com/maps/search/?api=1&query=Earls%20Kitchen%20%2B%20Bar&query_place_id=ChIJsUCZc7hzhlQRaxh7j09mwVo"
"Delara Restaurant","4.4","1175","2272 W 4th Ave","Vancouver","British Columbia","CA","http://delararestaurant.ca/","+1 604-730-4325","Persian restaurant","https://www.google.com/maps/search/?api=1&query=Delara%20Restaurant&query_place_id=ChIJG5pMSBZzhlQRWyTqRUmt87Y"
"Midam Korean Restaurant- Vancouver","4.3","511","3211 W Broadway","Vancouver","British Columbia","CA","http://midam.ca/","+1 604-714-0233","Korean restaurant","https://www.google.com/maps/search/?api=1&query=Midam%20Korean%20Restaurant-%20Vancouver&query_place_id=ChIJ2bkM2MxzhlQRCLKAwx7mpMU"
"The Galley Patio & Grill","4.1","317","1300 Discovery St","Vancouver","British Columbia","CA","http://www.thegalley.ca/","+1 604-222-1331","Restaurant","https://www.google.com/maps/search/?api=1&query=The%20Galley%20Patio%20%26%20Grill&query_place_id=ChIJtReZSvRyhlQRnNa9l4jlW3M"
"Thai Ni Yom (Thai Restaurant)","4.8","236","2953 W 4th Ave Unit 2","Vancouver","British Columbia","CA","http://www.thainiyom.ca/","+1 604-736-5474","Thai restaurant","https://www.google.com/maps/search/?api=1&query=Thai%20Ni%20Yom%20(Thai%20Restaurant)&query_place_id=ChIJkTqy2ZZzhlQRJZGwOIBvZVo"
"Tacofino Kitsilano","4.1","591","1909 W 4th Ave","Vancouver","British Columbia","CA","https://www.tacofino.com/location/kits","+1 604-620-8729","Burrito restaurant","https://www.google.com/maps/search/?api=1&query=Tacofino%20Kitsilano&query_place_id=ChIJge8E4tVzhlQRG1dFvCXyJWU"
"""Los Chavos"" Mexican Restaurant & Cantina","4.6","158","833 Denman St","Vancouver","British Columbia","CA","https://loschavosmexicanrestaurantcantinabc.com/","+1 604-336-3411","Mexican restaurant","https://www.google.com/maps/search/?api=1&query=%22Los%20Chavos%22%20Mexican%20Restaurant%20%26%20Cantina&query_place_id=ChIJabD1-JRzhlQRwspJvit3Dvs"
"Handi Grill","4.3","442","3618 W Broadway","Vancouver","British Columbia","CA","https://handigrill.com/","+1 604-738-3186","Indian restaurant","https://www.google.com/maps/search/?api=1&query=Handi%20Grill&query_place_id=ChIJzYr8ygFzhlQR0Wbq6F49Rt8"
"The Sauce Pasta Cafe","4.8","426","861 Denman St","Vancouver","British Columbia","CA","https://www.thesaucepastacafe.ca/","+1 604-681-7180","Italian restaurant","https://www.google.com/maps/search/?api=1&query=The%20Sauce%20Pasta%20Cafe&query_place_id=ChIJv1IAdH5zhlQRM96oAEL0B7A"
"Thai Basil Restaurant","4.2","538","3271 W Broadway","Vancouver","British Columbia","CA","http://thaibasilvancouver.ca/","+1 778-379-8424","Thai restaurant","https://www.google.com/maps/search/?api=1&query=Thai%20Basil%20Restaurant&query_place_id=ChIJ11Fv2qpzhlQRmImvfi_fK0A"
"The Wolf and Hound","4.2","893","3617 W Broadway","Vancouver","British Columbia","CA","http://www.wolfandhound.ca/","+1 604-738-8909","Irish pub","https://www.google.com/maps/search/?api=1&query=The%20Wolf%20and%20Hound&query_place_id=ChIJDdf7lf9yhlQRKPf63z5_WyY"
"Tonkotsu Ramen Tsukiya","4.8","651","740 Denman St","Vancouver","British Columbia","CA","https://ryugetsuservices.wixsite.com/tsukiya","+1 604-609-0310","Ramen restaurant","https://www.google.com/maps/search/?api=1&query=Tonkotsu%20Ramen%20Tsukiya&query_place_id=ChIJCyx7qkBxhlQRSIRvX3cIxiE"
"Bombay Masala Restaurant","4.4","637","4473 W 10th Ave","Vancouver","British Columbia","CA","https://bombaymasala.ca/","+1 604-224-1111","Indian restaurant","https://www.google.com/maps/search/?api=1&query=Bombay%20Masala%20Restaurant&query_place_id=ChIJARoGiPlzhlQRiWfyxGOBfGA"
"East is East","4.7","5972","4433 Main St","Vancouver","British Columbia","CA","http://www.eastiseast.ca/","+1 604-565-4401","Indian restaurant","https://www.google.com/maps/search/?api=1&query=East%20is%20East&query_place_id=ChIJV1fttPdzhlQRTvWMaI4H8UQ"
"Yasma","4.6","1016","550 Denman St","Vancouver","British Columbia","CA","http://www.yasma.ca/","+1 604-566-0493","Middle Eastern restaurant","https://www.google.com/maps/search/?api=1&query=Yasma&query_place_id=ChIJR8_8751zhlQRx_f56-tbuj4"
"Chef's Choice Seafood Restaurant","4.2","570","955 W Broadway","Vancouver","British Columbia","CA","https://chefschoice955.ca/","+1 604-620-5199","Chinese restaurant","https://www.google.com/maps/search/?api=1&query=Chef's%20Choice%20Seafood%20Restaurant&query_place_id=ChIJ20xTtk9zhlQRT1M0QJ-Mrqg"
"Burgoo","4.3","602","4434 W 10th Ave","Vancouver","British Columbia","CA","http://burgoo.ca/","+1 604-221-7839","Bistro","https://www.google.com/maps/search/?api=1&query=Burgoo&query_place_id=ChIJrWeiUuRyhlQRV3tmdEi6wFc"
"Superbaba (Vancouver)","4.7","1106","2419 Main St","Vancouver","British Columbia","CA","http://eatsuperbaba.com/","+1 604-423-5577","Middle Eastern restaurant","https://www.google.com/maps/search/?api=1&query=Superbaba%20(Vancouver)&query_place_id=ChIJT1nDEj1xhlQRL7VuTAnsxeI"
"Lupo Restaurant & Vinoteca","4.5","1202","869 Hamilton St","Vancouver","British Columbia","CA","http://www.luporestaurant.ca/","+1 604-569-2535","Italian restaurant","https://www.google.com/maps/search/?api=1&query=Lupo%20Restaurant%20%26%20Vinoteca&query_place_id=ChIJndZa5n1xhlQRVrRPA1d--UM"
"Mi Casa Mexicana","4.4","854","2015 Burrard St","Vancouver","British Columbia","CA","http://www.micasamexicana.net/","+1 604-423-3121","Mexican restaurant","https://www.google.com/maps/search/?api=1&query=Mi%20Casa%20Mexicana&query_place_id=ChIJrarqOTx3hlQRKwdrO4kjGfM"
"Cambie Vietnamese Restaurant","4.5","830","4136 Main St","Vancouver","British Columbia","CA","https://www.cambievietnameserestaurant.com/","+1 604-872-3455","Vietnamese restaurant","https://www.google.com/maps/search/?api=1&query=Cambie%20Vietnamese%20Restaurant&query_place_id=ChIJGTd4Z_dzhlQRSbJInD5Z0zI"
"Unchai Restaurant","4.6","563","2351 Burrard St","Vancouver","British Columbia","CA","http://www.unchai.ca/","+1 604-559-6484","Thai restaurant","https://www.google.com/maps/search/?api=1&query=Unchai%20Restaurant&query_place_id=ChIJG8ff4B1zhlQRQrfFrqiOlWA"
"The Acorn Restaurant","4.5","1937","3995 Main St","Vancouver","British Columbia","CA","http://www.theacornrestaurant.ca/","+1 604-566-9001","Vegetarian restaurant","https://www.google.com/maps/search/?api=1&query=The%20Acorn%20Restaurant&query_place_id=ChIJ01zR_vlzhlQRtjgBanRnmNg"
"Locus Restaurant & Lounge","4.4","780","4121 Main St","Vancouver","British Columbia","CA","https://locusonmain.com/","+1 604-708-4121","Restaurant","https://www.google.com/maps/search/?api=1&query=Locus%20Restaurant%20%26%20Lounge&query_place_id=ChIJAQ4oXPdzhlQRQ8r6R7SkFpk"
"Momo Factory","4.5","1251","1143 Davie St","Vancouver","British Columbia","CA","https://www.momofactory.ca/","+1 604-559-9238","Momo restaurant","https://www.google.com/maps/search/?api=1&query=Momo%20Factory&query_place_id=ChIJWwQEyXtzhlQRG5oz14NnhPw"
"Restaurant Yugo","4.4","887","4265 Main St","Vancouver","British Columbia","CA","http://www.restaurantyugo.com/","+1 604-620-7878","Japanese restaurant","https://www.google.com/maps/search/?api=1&query=Restaurant%20Yugo&query_place_id=ChIJ322icvdzhlQRxMfS0AOvyGU"
"Thai Town Restaurant","4.5","457","1065 Granville St","Vancouver","British Columbia","CA","https://www.vancouverthaitown.com/","+1 604-428-4588","Thai restaurant","https://www.google.com/maps/search/?api=1&query=Thai%20Town%20Restaurant&query_place_id=ChIJ3bF6uV9zhlQRp_tsSGGUq7s"
"ARC RESTAURANT","4.4","1467","900 Canada Pl","Vancouver","British Columbia","CA","https://www.arcdining.com/?utm_source=google+Maps&utm_medium=seo+maps&utm_campaign=seo+maps","+1 604-691-1818","Pacific Northwest restaurant (Canada)","https://www.google.com/maps/search/?api=1&query=ARC%20RESTAURANT&query_place_id=ChIJt-b1wYJxhlQRHVfYyeEQUDo"
"Little Japan Restaurant","4.8","66","555 W Hastings St","Vancouver","British Columbia","CA",,"+1 604-687-5722","Japanese restaurant","https://www.google.com/maps/search/?api=1&query=Little%20Japan%20Restaurant&query_place_id=ChIJfe2sYHhxhlQRUbjA606xqxI"
"Pho Zen Vietnamese Cuisine","4.3","351","654 SE Marine Dr","Vancouver","British Columbia","CA","https://www.phozenca.com/","+1 604-322-7117","Vietnamese restaurant","https://www.google.com/maps/search/?api=1&query=Pho%20Zen%20Vietnamese%20Cuisine&query_place_id=ChIJTRR5Ez11hlQRc0UZbj4e7vc"
"PiDGiN Restaurant","4.4","1148","350 Carrall St","Vancouver","British Columbia","CA","https://www.pidginvancouver.com/","+1 604-620-9400","Pan-Asian restaurant","https://www.google.com/maps/search/?api=1&query=PiDGiN%20Restaurant&query_place_id=ChIJj7pRp3BxhlQR8QU5qnkjG5U"
"Hawksworth Restaurant","4.3","1905","801 W Georgia St","Vancouver","British Columbia","CA","https://hawksworthrestaurant.com/","+1 604-673-7000","Pacific Northwest restaurant (Canada)","https://www.google.com/maps/search/?api=1&query=Hawksworth%20Restaurant&query_place_id=ChIJSQDA8oZ0hlQR_IFn3VHeS4w"
"Gusto A Taste of Italy","4.5","1338","1610 Salt St","Vancouver","British Columbia","CA","https://www.gustoatasteofitaly.com/home/","+1 604-874-8786","Italian restaurant","https://www.google.com/maps/search/?api=1&query=Gusto%20A%20Taste%20of%20Italy&query_place_id=ChIJ65CR2rhxhlQRbdz7fk28cEw"
"ASA Sushi","4.5","1848","2178 W 41st Ave","Vancouver","British Columbia","CA","http://asasushi.online/","+1 604-267-0077","Sushi restaurant","https://www.google.com/maps/search/?api=1&query=ASA%20Sushi&query_place_id=ChIJR7kV_HpzhlQRAkJoPqYo_PM"
"Super Chef Grill","4.8","487","280 Robson St","Vancouver","British Columbia","CA",,"+1 604-681-7189","Asian restaurant","https://www.google.com/maps/search/?api=1&query=Super%20Chef%20Grill&query_place_id=ChIJIY8E0n1xhlQRRqtqthf2YK0"
"Mr. Shi Noodles House","4.4","97","2255 W 41st Ave","Vancouver","British Columbia","CA","https://mrshinoodlehouse.zomi.menu/","+1 604-564-2299","Restaurant","https://www.google.com/maps/search/?api=1&query=Mr.%20Shi%20Noodles%20House&query_place_id=ChIJUXlLNwBzhlQRvbKyNiyBqsg"
"Neptune Eats Kerrisdale 凤鸣","4.1","179","2106 W 41st Ave","Vancouver","British Columbia","CA","http://neptuneeatskerrisdale.com/","+1 604-559-1108","Chinese restaurant","https://www.google.com/maps/search/?api=1&query=Neptune%20Eats%20Kerrisdale%20%E5%87%A4%E9%B8%A3&query_place_id=ChIJi8S84KBzhlQRrt3Fq8Vjnpw"
"Chicko Chicken (West blvd.)","4.4","244","6023 West Blvd","Vancouver","British Columbia","CA","https://chickochicken.ca/","+1 604-568-8709","Korean restaurant","https://www.google.com/maps/search/?api=1&query=Chicko%20Chicken%20(West%20blvd.)&query_place_id=ChIJ15BPPdhzhlQRdVTo_g9S294"
"Kokoro Tokyo Mazesoba - Kerrisdale","4.3","270","2285 W 41st Ave","Vancouver","British Columbia","CA","https://kokoro-tokyo-mazesoba-kerrisdale.square.site/","+1 604-326-2965","Japanese restaurant","https://www.google.com/maps/search/?api=1&query=Kokoro%20Tokyo%20Mazesoba%20-%20Kerrisdale&query_place_id=ChIJTVXwvcZzhlQRMwBXLDlgvDo"
"Baan Wasana Thai Restaurant","4.4","287","2143 W 41st Ave","Vancouver","British Columbia","CA","http://www.baanwasana.com/","+1 778-371-8971","Thai restaurant","https://www.google.com/maps/search/?api=1&query=Baan%20Wasana%20Thai%20Restaurant&query_place_id=ChIJq1VMU3pzhlQREAe72lFhbAc"
"Ramen DANBO Kerrisdale","4.3","434","2277 W 41st Ave","Vancouver","British Columbia","CA","https://ramendanbo.com/","+1 604-263-0846","Ramen restaurant","https://www.google.com/maps/search/?api=1&query=Ramen%20DANBO%20Kerrisdale&query_place_id=ChIJPY-iUgBzhlQRUxDdAhWeZfM"
"Pourhouse Restaurant","4.3","1543","162 Water St","Vancouver","British Columbia","CA","https://www.pourhousevancouver.com/","+1 604-568-7022","Restaurant","https://www.google.com/maps/search/?api=1&query=Pourhouse%20Restaurant&query_place_id=ChIJB3AAznlxhlQRnidXy4IF-TU"
"Porkoro Cutlet Express","4.9","29","2135 W 41st Ave","Vancouver","British Columbia","CA",,"+1 604-928-8318","Miso cutlet restaurant","https://www.google.com/maps/search/?api=1&query=Porkoro%20Cutlet%20Express&query_place_id=ChIJ6bxrbkhzhlQR0Lo8_OaHWoQ"
"Golden Ocean Seafood Restaurant","4","960","2046 W 41st Ave","Vancouver","British Columbia","CA","https://goldenoceanvancouver.com/?","+1 604-263-8886","Chinese restaurant","https://www.google.com/maps/search/?api=1&query=Golden%20Ocean%20Seafood%20Restaurant&query_place_id=ChIJtyIsw3tzhlQRQC-xZW1-h3w"
"Radish restaurant","4.6","199","1876 W 1st Ave","Vancouver","British Columbia","CA","https://radishrestaurant.com/","+1 604-606-0840","Italian restaurant","https://www.google.com/maps/search/?api=1&query=Radish%20restaurant&query_place_id=ChIJVfbyw5ZzhlQRbuc6Wmq6VB0"
"Petrichor Social Restaurant & Bar","4.7","204","216 Abbott St","Vancouver","British Columbia","CA","https://www.petrichorsocial.com/","+1 604-669-0033","French restaurant","https://www.google.com/maps/search/?api=1&query=Petrichor%20Social%20Restaurant%20%26%20Bar&query_place_id=ChIJb2tRWEtxhlQRg4gT_G56JaU"
"Barra 41","4.4","233","2407 W 41st Ave","Vancouver","British Columbia","CA","http://www.barra41.com/","+1 604-267-7475","Cocktail bar","https://www.google.com/maps/search/?api=1&query=Barra%2041&query_place_id=ChIJrSK0t3pzhlQRJzlIwv4Rsc8"
"Rajio Japanese Public House","4.4","620","3763 W 10th Ave","Vancouver","British Columbia","CA","https://www.rajiopublichouse.com/","+1 604-558-1679","Kushiage and kushikatsu restaurant","https://www.google.com/maps/search/?api=1&query=Rajio%20Japanese%20Public%20House&query_place_id=ChIJZ6_SRf5yhlQRgUcZ_McaYsw"
"Sandeul Korean Restaurant","4.2","196","6019 West Blvd","Vancouver","British Columbia","CA","http://sandeulkorean.ca/","+1 604-428-3388","Korean restaurant","https://www.google.com/maps/search/?api=1&query=Sandeul%20Korean%20Restaurant&query_place_id=ChIJQ3kK141zhlQRT8ydAxzK_LU"
"Urban Thai Bistro","4.7","163","5607 Dunbar St","Vancouver","British Columbia","CA","http://www.urbanthai.com/","+1 604-566-3903","Restaurant","https://www.google.com/maps/search/?api=1&query=Urban%20Thai%20Bistro&query_place_id=ChIJu-xVrVBzhlQRrce8f9WqScs"
"Afghan Horsemen Restaurant","4.5","2279","1833 Anderson St #202","Vancouver","British Columbia","CA","http://www.afghanhorsemen.com/","+1 604-873-5923","Afghan restaurant","https://www.google.com/maps/search/?api=1&query=Afghan%20Horsemen%20Restaurant&query_place_id=ChIJr1DcLslzhlQRFSst7yoSmwY"
"Breakfast Table South Granville","4.5","1397","3014 Granville St","Vancouver","British Columbia","CA","http://www.breakfasttable.ca/","+1 604-805-1900","Breakfast restaurant","https://www.google.com/maps/search/?api=1&query=Breakfast%20Table%20South%20Granville&query_place_id=ChIJG-euocdzhlQRjR_JfrqT7mE"
"HYDE on Main","4.4","289","2960 Main St","Vancouver","British Columbia","CA","http://instagram.com/hydeonmain","+1 604-709-6215","Bar & grill","https://www.google.com/maps/search/?api=1&query=HYDE%20on%20Main&query_place_id=ChIJjW6CoeNzhlQRF2JiscDacyA"
"Ramen Danbo Kitsilano","4.6","3483","1833 W 4th Ave","Vancouver","British Columbia","CA","http://ramendanbo.com/","+1 778-379-8977","Ramen restaurant","https://www.google.com/maps/search/?api=1&query=Ramen%20Danbo%20Kitsilano&query_place_id=ChIJQ3nj4clzhlQR9RUvmNL8Gk8"
"LE COQ FRIT (VANCOUVER)","4.7","1212","1888 W Broadway","Vancouver","British Columbia","CA","http://lecoqfrit.ca/","+1 604-568-8776","Chicken restaurant","https://www.google.com/maps/search/?api=1&query=LE%20COQ%20FRIT%20(VANCOUVER)&query_place_id=ChIJCX5OhzFzhlQRmM-hZpTNRZc"
"MeeT in Yaletown","4.4","2156","1165 Mainland St","Vancouver","British Columbia","CA","https://eatmeet.ca/meet-in-yaletown/","+1 604-696-1165","Restaurant","https://www.google.com/maps/search/?api=1&query=MeeT%20in%20Yaletown&query_place_id=ChIJF6Rk5dZzhlQR8azs1JE8fCk"
"Thai Basil Restaurant","4.3","535","1179 Commercial Dr","Vancouver","British Columbia","CA","http://www.thaibasilvancouver.ca/","+1 604-428-3050","Thai restaurant","https://www.google.com/maps/search/?api=1&query=Thai%20Basil%20Restaurant&query_place_id=ChIJhcC3qT9xhlQRgTt9yy0HcY4"
"Bombay Kitchen + Bar - Commercial Dr","4.4","1989","1018 Commercial Dr","Vancouver","British Columbia","CA","http://bombaykitchenoncommercial.ca/","+1 604-336-1111","Indian restaurant","https://www.google.com/maps/search/?api=1&query=Bombay%20Kitchen%20%2B%20Bar%20-%20Commercial%20Dr&query_place_id=ChIJwzGZvXdxhlQRkfAVf4vvg7o"
"Loula's","4","720","1608 Commercial Dr","Vancouver","British Columbia","CA","http://loulastaverna.com/","+1 672-380-4109","Restaurant","https://www.google.com/maps/search/?api=1&query=Loula's&query_place_id=ChIJARfKW7txhlQRgm1BxguLamU"
"El Camino's","4.3","1440","3250 Main St","Vancouver","British Columbia","CA","http://www.elcaminos.ca/","+1 604-875-6246","Mexican restaurant","https://www.google.com/maps/search/?api=1&query=El%20Camino's&query_place_id=ChIJxRSsqORzhlQRcNrJucWsHfk"
"Phnom Penh Restaurant","4.5","5011","244 E Georgia St","Vancouver","British Columbia","CA","http://phnompenhrestaurant.ca/","+1 604-682-5777","Cambodian restaurant","https://www.google.com/maps/search/?api=1&query=Phnom%20Penh%20Restaurant&query_place_id=ChIJs8IJ5W9xhlQR37XQMO_WQ04"
"Boteco Brasil Restaurant","4.3","1482","2545 Nanaimo St","Vancouver","British Columbia","CA","http://boteco.ca/","+1 778-379-7995","Brazilian restaurant","https://www.google.com/maps/search/?api=1&query=Boteco%20Brasil%20Restaurant&query_place_id=ChIJj4y4hjVxhlQRYpgCUuJSLp4"
"Hoa Phuong Do Restaurant","4.6","248","5088 Victoria Dr","Vancouver","British Columbia","CA","https://hoaphuongdo.ca/","+1 778-585-1616","Vietnamese restaurant","https://www.google.com/maps/search/?api=1&query=Hoa%20Phuong%20Do%20Restaurant&query_place_id=ChIJcWJMx-p3hlQRkfPZevSaaqg"
"Tasty Planet Indian Restaurant | Vancouver","4.9","465","4181 Fraser St","Vancouver","British Columbia","CA","https://locations.tastyplanet.ca/","+1 604-879-8885","Indian restaurant","https://www.google.com/maps/search/?api=1&query=Tasty%20Planet%20Indian%20Restaurant%20%7C%20Vancouver&query_place_id=ChIJCYq7MkBzhlQR8UgMknbk5oY"
"Kook Korean BBQ Restaurant","4.6","1763","2800 E 1st Ave #211A","Vancouver","British Columbia","CA","http://kookbbq.ca/","+1 604-566-5665","Korean barbecue restaurant","https://www.google.com/maps/search/?api=1&query=Kook%20Korean%20BBQ%20Restaurant&query_place_id=ChIJy8cKC6RxhlQRjPD2cK7rDp8"
"Mỹ Châu Restaurant","4.7","432","1715 Kingsway","Vancouver","British Columbia","CA","https://my-chau-vietnamese-restaurant.square.site/","+1 604-874-6880","Vietnamese restaurant","https://www.google.com/maps/search/?api=1&query=M%E1%BB%B9%20Ch%C3%A2u%20Restaurant&query_place_id=ChIJ5_r9Sal2hlQRpnH5L2yh46Q"
"Sprezzatura Restaurant","4.4","843","265 Kingsway","Vancouver","British Columbia","CA","http://www.sprezzatura.ca/","+1 604-876-6333","Pizza restaurant","https://www.google.com/maps/search/?api=1&query=Sprezzatura%20Restaurant&query_place_id=ChIJCU7GmHVzhlQRVCX3eeeGIqo"
"Pink Peppercorn Seafood House","4.6","800","1485 Kingsway","Vancouver","British Columbia","CA","https://eddyspinkpeppercorn.ca/","+1 604-569-3626","Seafood restaurant","https://www.google.com/maps/search/?api=1&query=Pink%20Peppercorn%20Seafood%20House&query_place_id=ChIJN0Vkvat2hlQRLXcNcR39sbw"
"The Tipper Restaurant","4.5","756","2066 Kingsway","Vancouver","British Columbia","CA","https://www.thetipperrestaurant.com/","+1 604-873-1010","Restaurant","https://www.google.com/maps/search/?api=1&query=The%20Tipper%20Restaurant&query_place_id=ChIJVb0YVq92hlQRr26cPXIX0k0"
"Social","4.2","1011","1812 Commercial Dr","Vancouver","British Columbia","CA","https://www.socialyvr.com/","+1 604-251-5565","Restaurant","https://www.google.com/maps/search/?api=1&query=Social&query_place_id=ChIJR1CnJoZxhlQRNymTWWusZmo"
"La Mezcaleria","4.4","2436","1622 Commercial Dr","Vancouver","British Columbia","CA","http://www.lamezcaleria.ca/","+1 604-559-8226","Mexican restaurant","https://www.google.com/maps/search/?api=1&query=La%20Mezcaleria&query_place_id=ChIJEa-sXUdxhlQR8WFhlViz2Pk"
"P2B Restaurant + Bar","4.5","893","1133 W Hastings St","Vancouver","British Columbia","CA","http://www.p2bbistro.com/","+1 604-691-2777","Restaurant","https://www.google.com/maps/search/?api=1&query=P2B%20Restaurant%20%2B%20Bar&query_place_id=ChIJV5_58YNxhlQRAY6qECXa8vI"
"Gurkha Himalayan Kitchen Restaurant","4.6","2738","1141 Davie St","Vancouver","British Columbia","CA","https://www.gurkha.ca/","+1 604-565-7965","Nepalese restaurant","https://www.google.com/maps/search/?api=1&query=Gurkha%20Himalayan%20Kitchen%20Restaurant&query_place_id=ChIJiSptaCtyhlQREIyTMg6n2XI"
"B House Restaurant","4.7","566","2270 Commercial Dr","Vancouver","British Columbia","CA","http://www.bhouse.ca/","+1 604-564-2468","Asian fusion restaurant","https://www.google.com/maps/search/?api=1&query=B%20House%20Restaurant&query_place_id=ChIJzZFcYSdxhlQRBEix0Q2qvxg"
"Kozak Ukrainian Restaurant","4.7","1075","1 W Cordova St","Vancouver","British Columbia","CA","http://kozakeatery.ca/","+1 778-955-9135","Ukrainian restaurant","https://www.google.com/maps/search/?api=1&query=Kozak%20Ukrainian%20Restaurant&query_place_id=ChIJj0XSRZNxhlQRmOYOKpilFn8"
"Gringo Gastown","4.5","2220","27 Blood Alley Square","Vancouver","British Columbia","CA","https://gringorestaurants.com/gastown/","+1 604-673-0513","Tex-Mex restaurant","https://www.google.com/maps/search/?api=1&query=Gringo%20Gastown&query_place_id=ChIJFWhLV3dxhlQR-BCOL1u24FY"
"Guu Original Thurlow","4.5","2138","838 Thurlow St","Vancouver","British Columbia","CA","https://guu-izakaya.com/Original_QR","+1 604-685-8817","Izakaya restaurant","https://www.google.com/maps/search/?api=1&query=Guu%20Original%20Thurlow&query_place_id=ChIJOeYve4BxhlQRfPFG8Wik9YI"
"Cardero's Restaurant","4.5","6496","1583 Coal Harbour Quay","Vancouver","British Columbia","CA","https://www.vancouverdine.com/carderos/","+1 604-669-7666","Seafood restaurant","https://www.google.com/maps/search/?api=1&query=Cardero's%20Restaurant&query_place_id=ChIJOQXpDoZxhlQRwQ2A6Ulh9-w"
"Coast","4.6","5229","1054 Alberni St","Vancouver","British Columbia","CA","https://www.glowbalgroup.com/coast/?utm_source=GoogleBusinessProfile&utm_medium=Website&utm_campaign=MapLabs","+1 604-685-5010","Restaurant","https://www.google.com/maps/search/?api=1&query=Coast&query_place_id=ChIJ_cDEUoBxhlQRCIVLWrVfO0A"
"Erbil Restaurant","4.9","317","1861 Commercial Dr","Vancouver","British Columbia","CA","https://erbilrestaurant.ca/","+1 236-471-1157","Restaurant","https://www.google.com/maps/search/?api=1&query=Erbil%20Restaurant&query_place_id=ChIJ9WVlAwBxhlQRVkN9nIq-cOs"
"Carlino Restaurant","4.4","814","1115 Alberni St #3F","Vancouver","British Columbia","CA","http://www.carlinorestaurant.com/","+1 604-695-1115","Italian restaurant","https://www.google.com/maps/search/?api=1&query=Carlino%20Restaurant&query_place_id=ChIJw2Vqfk9xhlQRgGkg_E2xXmk"
"Bacchus Restaurant & Lounge","4.5","1163","845 Hornby St","Vancouver","British Columbia","CA","https://wedgewoodhotel.com/dining/bacchus-restaurant/","+1 604-608-5319","European restaurant","https://www.google.com/maps/search/?api=1&query=Bacchus%20Restaurant%20%26%20Lounge&query_place_id=ChIJC-yI8X9xhlQRn6JOG3CpMKY"
"Di Beppe Restaurant","4.4","1743","8 W Cordova St","Vancouver","British Columbia","CA","http://www.dibeppe.com/","+1 604-559-1122","Italian restaurant","https://www.google.com/maps/search/?api=1&query=Di%20Beppe%20Restaurant&query_place_id=ChIJdUiOqXBxhlQR9xz4YULOF10"
"Five Sails Restaurant","4.6","1543","999 Canada Pl","Vancouver","British Columbia","CA","https://glowbalgroup.com/five-sails/?utm_source=GoogleBusinessProfile&utm_medium=Website&utm_campaign=MapLabs","+1 604-844-2855","Restaurant","https://www.google.com/maps/search/?api=1&query=Five%20Sails%20Restaurant&query_place_id=ChIJ18-j2oJxhlQRcq-nkLQ528w"
"Glowbal Restaurant","4.6","7571","590 W Georgia St","Vancouver","British Columbia","CA","https://glowbalgroup.com/glowbal/?utm_source=GoogleBusinessProfile&utm_medium=Website&utm_campaign=MapLabs","+1 604-602-0835","Restaurant","https://www.google.com/maps/search/?api=1&query=Glowbal%20Restaurant&query_place_id=ChIJ184e4X5xhlQREgkeHvFAYwE"
"Miku Vancouver","4.6","7595","200 Granville St #70","Vancouver","British Columbia","CA","http://www.mikurestaurant.com/","+1 604-568-3900","Sushi restaurant","https://www.google.com/maps/search/?api=1&query=Miku%20Vancouver&query_place_id=ChIJlyu4u4NxhlQRkUpN_iFwl8Q"
"The Red Wagon","4.4","1979","2128 E Hastings St","Vancouver","British Columbia","CA","http://www.redwagoncafe.ca/","+1 604-568-4565","Canadian restaurant","https://www.google.com/maps/search/?api=1&query=The%20Red%20Wagon&query_place_id=ChIJIdchfhhxhlQRNmbx0FTadWA"
"Cuchillo","4.6","1555","261 Powell St","Vancouver","British Columbia","CA","http://www.cuchillo.ca/","+1 604-559-7585","Latin American restaurant","https://www.google.com/maps/search/?api=1&query=Cuchillo&query_place_id=ChIJGzNQznBxhlQRUfJ4lO6Hwnc"
"Axum Restaurant","4.6","601","1279 E Hastings St","Vancouver","British Columbia","CA","http://axumrestaurant.ca/","+1 604-253-2986","Ethiopian restaurant","https://www.google.com/maps/search/?api=1&query=Axum%20Restaurant&query_place_id=ChIJKXQKohNxhlQRDbphqKoybUE"
"Ask For Luigi Restaurant","4.6","2831","305 Alexander St","Vancouver","British Columbia","CA","http://www.askforluigi.com/","+1 604-428-2544","Italian restaurant","https://www.google.com/maps/search/?api=1&query=Ask%20For%20Luigi%20Restaurant&query_place_id=ChIJe-XLV3FxhlQRp_RhBdLadTM"
"MILA","4.5","808","185 Keefer St","Vancouver","British Columbia","CA","https://www.milaplantbased.com/","+1 604-844-8040","Restaurant","https://www.google.com/maps/search/?api=1&query=MILA&query_place_id=ChIJU321ZkRxhlQRdTZKXohmv8E"
"Saan Saan Cafe and Restaurant","4.8","161","227 Main St","Vancouver","British Columbia","CA","http://saansaan.ca/",,"Restaurant","https://www.google.com/maps/search/?api=1&query=Saan%20Saan%20Cafe%20and%20Restaurant&query_place_id=ChIJbSS3NOhxhlQRzXKPx8Winw0"
"CM Chicken Kitsilano(Call now to order)","4.7","664","1629 Yew St","Vancouver","British Columbia","CA","https://cmkits.zomi.menu/","+1 604-356-6454","Korean restaurant","https://www.google.com/maps/search/?api=1&query=CM%20Chicken%20Kitsilano(Call%20now%20to%20order)&query_place_id=ChIJUVqtEgpzhlQRvfnZLrgerng"
"Lavidas Restaurant","4.5","253","1961 W 4th Ave","Vancouver","British Columbia","CA","http://lavidasrestaurant.ca/","+1 604-732-0004","Restaurant","https://www.google.com/maps/search/?api=1&query=Lavidas%20Restaurant&query_place_id=ChIJzRsldLZzhlQR4VIoVRSSLeM"
"The Ellis Restaurant Kits","4.2","644","2204 York Ave","Vancouver","British Columbia","CA","http://www.theellis.ca/","+1 604-365-0616","Restaurant","https://www.google.com/maps/search/?api=1&query=The%20Ellis%20Restaurant%20Kits&query_place_id=ChIJxc6uLrVzhlQREB03taE_sDA"
"Niwa Restaurant","4.7","64","1875 Powell St","Vancouver","British Columbia","CA","http://www.restaurantniwa.com/","+1 778-379-3790","Restaurant","https://www.google.com/maps/search/?api=1&query=Niwa%20Restaurant&query_place_id=ChIJzeZiaABxhlQRdz6rzPbZNos"
"Ocean Goose Japanese Restaurant","4.8","439","1850 W 4th Ave","Vancouver","British Columbia","CA","https://oceangoose.ca/","+1 604-229-3673","Restaurant","https://www.google.com/maps/search/?api=1&query=Ocean%20Goose%20Japanese%20Restaurant&query_place_id=ChIJB0cfX6tzhlQR6l1sB6MVKD8"
"Maenam","4.4","1211","1938 W 4th Ave","Vancouver","British Columbia","CA","http://www.maenam.ca/","+1 604-730-5579","Thai restaurant","https://www.google.com/maps/search/?api=1&query=Maenam&query_place_id=ChIJEZAPc7ZzhlQRYvvVFvv6CLo"
"St. Lawrence Restaurant","4.6","1378","269 Powell St","Vancouver","British Columbia","CA","http://www.stlawrencerestaurant.com/","+1 604-620-3800","Haute French restaurant","https://www.google.com/maps/search/?api=1&query=St.%20Lawrence%20Restaurant&query_place_id=ChIJl9_waXFxhlQRbBq6lKwoHic"
"Juicy Joe's Burgers","4.9","1477","2004 W 4th Ave","Vancouver","British Columbia","CA","https://www.juicyjoes.ca/","+1 778-833-3511","Hamburger restaurant","https://www.google.com/maps/search/?api=1&query=Juicy%20Joe's%20Burgers&query_place_id=ChIJA_fL1dNzhlQR5Ymb-FkPyV0"
"Chewie's Chicken & Biscuits","4.8","1191","2822 W 4th Ave","Vancouver","British Columbia","CA","https://www.chewiesbiscuitco.com/","+1 604-336-9996","Breakfast restaurant","https://www.google.com/maps/search/?api=1&query=Chewie's%20Chicken%20%26%20Biscuits&query_place_id=ChIJ_6Aip_xzhlQRGV4e98-vymg"
"Banana Leaf in Kitsilano","4.2","1046","Macdonald St & UBC, 3005 W Broadway","Vancouver","British Columbia","CA","https://www.bananaleaf-vancouver.com/kitsilano","+1 604-734-3005","Malaysian restaurant","https://www.google.com/maps/search/?api=1&query=Banana%20Leaf%20in%20Kitsilano&query_place_id=ChIJwXdWeqtzhlQRvhCBn2ZX5kM"
"The Naam","4.3","2906","2724 W 4th Ave","Vancouver","British Columbia","CA","http://www.thenaam.com/","+1 604-738-7151","Vegetarian restaurant","https://www.google.com/maps/search/?api=1&query=The%20Naam&query_place_id=ChIJ6QuEWZFzhlQRU6ynlJ2i81c"
"East Is East","4.8","3797","3035 W Broadway","Vancouver","British Columbia","CA","http://www.eastiseast.ca/","+1 604-734-5881","Indian restaurant","https://www.google.com/maps/search/?api=1&query=East%20Is%20East&query_place_id=ChIJD64_2KpzhlQRZ4c_BsxnnUo"
"Four Olives Restaurant -Best Greek Restaurant","4.5","608","4510 W 10th Ave","Vancouver","British Columbia","CA","http://www.fourolives.ca/","+1 604-221-7777","Greek restaurant","https://www.google.com/maps/search/?api=1&query=Four%20Olives%20Restaurant%20-Best%20Greek%20Restaurant&query_place_id=ChIJ27ojj9NzhlQRcJhTE_WSFts"
"La Quercia & L'Ufficio","4.6","462","3689 W 4th Ave","Vancouver","British Columbia","CA","http://laquercia.ca/","+1 604-676-1007","Italian restaurant","https://www.google.com/maps/search/?api=1&query=La%20Quercia%20%26%20L'Ufficio&query_place_id=ChIJ34VbDlZyhlQRQ9iaa47Y7rI"
"Nostos Taverna","4.5","419","3162 W Broadway","Vancouver","British Columbia","CA","https://nostostaverna.com/","+1 604-730-9303","Greek restaurant","https://www.google.com/maps/search/?api=1&query=Nostos%20Taverna&query_place_id=ChIJGTXjRt9zhlQRsPdqsVTHK7E"
"Don at Kitsilano","4.7","292","2186 W 4th Ave","Vancouver","British Columbia","CA","https://www.eatdon.com/","+1 604-566-6366","Restaurant","https://www.google.com/maps/search/?api=1&query=Don%20at%20Kitsilano&query_place_id=ChIJ-87fSS5zhlQRvumPusLGY6M"
"Nuba in Kitsilano","4.2","1194","3116 W Broadway","Vancouver","British Columbia","CA","http://www.nuba.ca/","+1 604-336-1797","Restaurant","https://www.google.com/maps/search/?api=1&query=Nuba%20in%20Kitsilano&query_place_id=ChIJFTwcFKtzhlQRMHMSgMHNc3Q"
"Raisu","4.5","3236","2340 W 4th Ave","Vancouver","British Columbia","CA","https://raisu.ca/","+1 604-620-1564","Japanese restaurant","https://www.google.com/maps/search/?api=1&query=Raisu&query_place_id=ChIJheYkn7NzhlQR8weTw-mG_IU"
"Nook","4.5","1253","1525 Yew St","Vancouver","British Columbia","CA","http://nookrestaurants.com/","+1 604-734-0099","Italian restaurant","https://www.google.com/maps/search/?api=1&query=Nook&query_place_id=ChIJq9PfzEpyhlQRUqp026zudho"
"Bann Thai","4.6","267","8542 Granville St","Vancouver","British Columbia","CA","http://bannthai.zomi.menu/","+1 236-455-6299","Thai restaurant","https://www.google.com/maps/search/?api=1&query=Bann%20Thai&query_place_id=ChIJmzpuIgB1hlQR_DTsoUXg1oI"
"Talay Thai Restaurant","4.7","519","8369 Granville St","Vancouver","British Columbia","CA","https://zomi.menu/pick-up?shop=11515&utm=&table=","+1 604-568-2012","Thai restaurant","https://www.google.com/maps/search/?api=1&query=Talay%20Thai%20Restaurant&query_place_id=ChIJPU-fOIB1hlQRV_v7JVCgjK8"
"Ivy's Kitchen Vietnamese Restaurant","4.5","343","4598 Main St","Vancouver","British Columbia","CA",,"+1 604-873-3345","Restaurant","https://www.google.com/maps/search/?api=1&query=Ivy's%20Kitchen%20Vietnamese%20Restaurant&query_place_id=ChIJgUKmvd11hlQRZRYpELDEyi8"
"Pho Hong on Fraser","4.4","566","6348 Fraser St","Vancouver","British Columbia","CA","https://phohong.ca/","+1 604-327-6348","Vietnamese restaurant","https://www.google.com/maps/search/?api=1&query=Pho%20Hong%20on%20Fraser&query_place_id=ChIJX7JKJRV0hlQRqpeYJnZ3tJU"
"Okini Restaurant & Bar","4.5","906","1864 W 57th Ave","Vancouver","British Columbia","CA","http://www.okiniyvr.com/","+1 604-263-0155","Restaurant","https://www.google.com/maps/search/?api=1&query=Okini%20Restaurant%20%26%20Bar&query_place_id=ChIJp2Gg2tx1hlQRk0V3_4afIiI"
"Minerva’s Restaurant","4.4","1158","2411 W 41st Ave","Vancouver","British Columbia","CA","http://www.minervas.ca/","+1 604-263-1774","Greek restaurant","https://www.google.com/maps/search/?api=1&query=Minerva%E2%80%99s%20Restaurant&query_place_id=ChIJWSFJtnpzhlQRfhTTUMJTgPU"
"Vegan Shoku Japanese Restaurant","4.8","468","2260 W 41st Ave","Vancouver","British Columbia","CA","https://swypepos.com/olo/veganshoku/001?t=1718675824542","+1 604-566-6556","Vegan restaurant","https://www.google.com/maps/search/?api=1&query=Vegan%20Shoku%20Japanese%20Restaurant&query_place_id=ChIJiYjpfChzhlQRmDmazeq8pzM"
"SOCIAL CORNER YALETOWN","4.3","4021","891 Homer St","Vancouver","British Columbia","CA","http://www.persesocialcorner.com/","+1 604-428-6111","Italian restaurant","https://www.google.com/maps/search/?api=1&query=SOCIAL%20CORNER%20YALETOWN&query_place_id=ChIJl97JCH5xhlQRCMTZHG7N-Sg"
"Maple Grill","4.6","231","1965 W Broadway","Vancouver","British Columbia","CA","http://maplegrillpopup.com/","+1 604-738-7060","Kosher restaurant","https://www.google.com/maps/search/?api=1&query=Maple%20Grill&query_place_id=ChIJe8BUSLdzhlQRNg9dLfqHX60"
"Tocador","4.3","717","2610 Main St","Vancouver","British Columbia","CA","http://www.tocador.ca/","+1 604-620-2433","Restaurant","https://www.google.com/maps/search/?api=1&query=Tocador&query_place_id=ChIJQyTlBnpxhlQRLMp85jVQHUQ"
"Johnny’s on Oak","4.5","653","3838 Oak St","Vancouver","British Columbia","CA","https://johnnysonoak.ca/","+1 604-732-3777","Greek restaurant","https://www.google.com/maps/search/?api=1&query=Johnny%E2%80%99s%20on%20Oak&query_place_id=ChIJY29n8q13hlQR_AuS1MP2CyI"
"Maria's Taverna","4.5","873","2324 W 4th Ave","Vancouver","British Columbia","CA","http://mariason4th.com/","+1 604-731-4722","Greek restaurant","https://www.google.com/maps/search/?api=1&query=Maria's%20Taverna&query_place_id=ChIJ92RInLNzhlQRKh1-M8BY3VA"
"Moxies West Georgia Restaurant","4.5","2113","180 W Georgia St","Vancouver","British Columbia","CA","https://moxies.com/restaurants/west-georgia?utm_source=GMB&utm_medium=google-location-listing&utm_campaign=organic","+1 604-684-8434","Restaurant","https://www.google.com/maps/search/?api=1&query=Moxies%20West%20Georgia%20Restaurant&query_place_id=ChIJqXfGF3xxhlQRAvL-tqjuoZk"
"Oddfish Restaurant","4.6","710","1889 W 1st Ave","Vancouver","British Columbia","CA","http://www.oddfishrestaurant.com/","+1 604-564-6330","Seafood restaurant","https://www.google.com/maps/search/?api=1&query=Oddfish%20Restaurant&query_place_id=ChIJ9ZQCacpzhlQRLx_Hge2HPaU"
"Chickpea Restaurant","4.4","3230","4298 Main St","Vancouver","British Columbia","CA","http://www.ilovechickpea.ca/","+1 604-620-0602","Vegan restaurant","https://www.google.com/maps/search/?api=1&query=Chickpea%20Restaurant&query_place_id=ChIJ7_0WpPdzhlQR2ULoL78zALs"
"Fassil Restaurant","4.7","652","736 E Broadway","Vancouver","British Columbia","CA","http://www.fassil.ca/","+1 604-879-2001","Ethiopian restaurant","https://www.google.com/maps/search/?api=1&query=Fassil%20Restaurant&query_place_id=ChIJj3HBKlpxhlQRb7mk1ZOMeNE"
"Neptune Palace Seafood Restaurant (Vancouver)","4.1","1351","470 SW Marine Dr Unit 308","Vancouver","British Columbia","CA","https://www.neptunepalacerestaurant.ca/","+1 604-423-3386","Chinese restaurant","https://www.google.com/maps/search/?api=1&query=Neptune%20Palace%20Seafood%20Restaurant%20(Vancouver)&query_place_id=ChIJs-JX3rZ1hlQRs_1BTeome-4"
"Bodega on Main","4.3","2226","1014 Main St","Vancouver","British Columbia","CA","http://www.bodegaonmain.ca/","+1 604-565-8815","Spanish restaurant","https://www.google.com/maps/search/?api=1&query=Bodega%20on%20Main&query_place_id=ChIJT_bIqGVxhlQRlgkDlyIY9gg"
"Brunch Vancouver | Breakfast & Brunch Restaurant","4.6","1180","1147 Granville St","Vancouver","British Columbia","CA","https://www.brunchvancouver.com/","+1 604-423-9132","Brunch restaurant","https://www.google.com/maps/search/?api=1&query=Brunch%20Vancouver%20%7C%20Breakfast%20%26%20Brunch%20Restaurant&query_place_id=ChIJmaXI_AlzhlQRaQnqL5XRigM"
"Banana Leaf Original (Broadway & Oak)","4.4","1831","820 W Broadway","Vancouver","British Columbia","CA","https://www.bananaleaf-vancouver.com/broadway","+1 604-731-6333","Malaysian restaurant","https://www.google.com/maps/search/?api=1&query=Banana%20Leaf%20Original%20(Broadway%20%26%20Oak)&query_place_id=ChIJdxjrGMNzhlQREy0YgBUfdvs"
"Saba Foods Middle Eastern Yemeni Restaurant","4.8","2320","2881 Granville St","Vancouver","British Columbia","CA","http://www.sabafoods.ca/","+1 604-358-0566","Halal restaurant","https://www.google.com/maps/search/?api=1&query=Saba%20Foods%20Middle%20Eastern%20Yemeni%20Restaurant&query_place_id=ChIJ_4DyPpfbhVQRv2KFIlapZ5g"
"Manoush'eh","4.8","1520","620 Davie St","Vancouver","British Columbia","CA","http://www.manousheh.ca/","+1 604-440-4402","Syrian restaurant","https://www.google.com/maps/search/?api=1&query=Manoush'eh&query_place_id=ChIJVzoIGtRzhlQR8Kyc1DyKEVU"
"Giardino Restaurant","4.5","948","1328 Hornby St","Vancouver","British Columbia","CA","http://www.umberto.com/giardino","+1 604-669-2422","Italian restaurant","https://www.google.com/maps/search/?api=1&query=Giardino%20Restaurant&query_place_id=ChIJdd9ipdNzhlQRTeCkanpMc8s"
"La Terrazza","4.4","879","1088 Cambie St.","Vancouver","British Columbia","CA","http://www.laterrazza.ca/","+1 604-899-4449","Italian restaurant","https://www.google.com/maps/search/?api=1&query=La%20Terrazza&query_place_id=ChIJv7MHrtdzhlQRz141l-V5w3k"
"The Sandbar Seafood Restaurant","4.4","4749","1535 Johnston Street, Creekhouse #102, 1535 Johnston St #35","Vancouver","BC","CA","https://www.vancouverdine.com/sandbar/","+1 604-669-9030","Seafood restaurant","https://www.google.com/maps/search/?api=1&query=The%20Sandbar%20Seafood%20Restaurant&query_place_id=ChIJj6Jmb85zhlQR8ho06uTUy6U"
"Mazahr Lebanese Kitchen","4.8","1070","1488 W 11th Ave","Vancouver","British Columbia","CA","http://www.mazahr.ca/","+1 604-733-2211","Restaurant","https://www.google.com/maps/search/?api=1&query=Mazahr%20Lebanese%20Kitchen&query_place_id=ChIJvwZJqBxzhlQR-es8abhT5zM"
"Napoletana Pizza Restaurant","4.8","348","3875 Fraser St","Vancouver","British Columbia","CA","http://pizzanapoletana.ca/","+1 604-229-9249","Italian restaurant","https://www.google.com/maps/search/?api=1&query=Napoletana%20Pizza%20Restaurant&query_place_id=ChIJb0tDCgBzhlQRxpR3-DStr3E"
